pid|name|address|city|state|zip|lon|lat|chainid|psic|allsics|res_type
10006564|Osi Collection Services|1902  96th St|Tacoma|WA|98444|-122.463494|47.169262||73229902|73229902:|
10007044|Oslo Salon And Day Spa|1310 N I St|Tacoma|WA|98403|-122.467315|47.267209||72310000|72310000:79910103:72990200:|
10026254|Outback Steakhouse|3111 S 38th St|Tacoma|WA|98409|-122.47671|47.222606|505|58120802|58120802:|
10026470|Outback Steakhouse|12920  Meridian |Puyallup|WA|98373|-122.29378|47.138637|505|58120802|58120802:|
10031763|Outrigger Apartments|6102  6th Ave|Tacoma|WA|98406|-122.519337|47.254579||65130000|65130000:72999901:|
10033564|Over The Moon Cafe|709  Court C |Tacoma|WA|98402|-122.441573|47.257376||58129902|58129902:|
10038863|Ovist and Howard CPA|7509  Grange St|Lakewood|WA|98499|-122.515952|47.189068||87210101|87210101:|
10048072|C Christian Fynboe Pe|12181  C St|Tacoma|WA|98444|-122.436881|47.14566||87119903|87119903:87110404:|
10057498|P A M Group Home|619  7th Ave|Puyallup|WA|98372|-122.285253|47.186368||83610105|83610105:|
10058705|P C Cleaners|17707  Pacific Ave|Spanaway|WA|98387|-122.434744|47.096251||72160000|72160000:|
10060013|Parent Child Assistance Program-Uw Tacoma|3630 S Cedar St|Tacoma|WA|98409|-122.477085|47.224747||83220610|83220610:|
10064288|Barclays Realty|13414  Meridian |Puyallup|WA|98373|-122.293835|47.134095||65310100|65310100:|
10064372|P M & Co|9315  Gravelly Lake Dr|Lakewood|WA|98499|-122.516991|47.172848||72310000|72310000:|
10070144|Pac 40|3850  Pacific Ave|Tacoma|WA|98418|-122.434484|47.221304||58130101|58130101:58120310:|
10075107|Pacific Auto Air|9442  Pacific Ave|Tacoma|WA|98444|-122.434278|47.171002||55310101|55310101:75390000:75490000:75380000:|
1007518|Arabella Vitall Day Spa|10215  125th Street Ct|Puyallup|WA|98374|-122.291975|47.142708||79910103|79910103:72990200:|
10075295|Pacific Avenue Motors|8428  Pacific Ave|Tacoma|WA|98444|-122.43453|47.179611||55219902|55219902:|
10075298|VCA Pacific Avenue Animal Hospital|10234  Pacific Ave|Tacoma|WA|98444|-122.434997|47.163145||07420000|07420000:|
10076334|Pacific Cataract and Laser Institute|2915 S Alder St|Tacoma|WA|98409|-122.477475|47.233963||80110000|80110000:80310000:|
10076869|Pacific Coast Composites|11302  Steele St|Lakewood|WA|98499|-122.468493|47.15477||||
10076891|Pacific Coast Container|2018 E Portland Ave|Tacoma|WA|98421|-122.416895|47.248371||42260200|42260200:|
10077549|Pacific Coast Publishing Inc|1551  Broadway |Tacoma|WA|98402|-122.438826|47.248533||27419900|27419900:27310000:|
10077810|Pacific Coast Water Works|1298  Moorlands Dr|Tacoma|WA|98405|-122.503205|47.246696||73899948|73899948:49410101:|
10081225|Steve's Pacific Import Auto Inc|13311  Pacific Ave|Tacoma|WA|98444|-122.434419|47.136167||75390000|75390000:75490000:75380000:|
10081911|Pacific Lanes|7015 S D St|Tacoma|WA|98408|-122.435904|47.193024||79339900|79339900:58120000:|
10083131|Pacific Mount Inc|4727 S Washington St|Tacoma|WA|98409|-122.484792|47.214465||50430000|50430000:38610000:|
10083728|Pacific Northwest Storage|112  168th St|Spanaway|WA|98387|-122.43253|47.104361||42259900|42259900:42260200:42269901:|
10084576|Pacific Pizza Co|9131  Veterans Dr|Lakewood|WA|98498|-122.559473|47.14453||58120600|58120600:|
10084711|Pacific Point Apts|1801 S 84th St|Tacoma|WA|98444|-122.46054|47.181479||65130000|65130000:72999901:|
10087289|Pacific Recording Studios|2328  Pacific Ave|Tacoma|WA|98402|-122.435942|47.240654||73891105|73891105:|
10088739|Pacific Tradewinds|4640  67th Avenue Ct|Tacoma|WA|98466|-122.527383|47.215066||57130000|57130000:|
10089363|Pacific Village Apts|315  125th St|Tacoma|WA|98444|-122.436518|47.143885||65130000|65130000:72999901:|
10098190|Wayne H Page Certified Public Accountant|13921  Meridian |Puyallup|WA|98373|-122.292339|47.129592||87210101|87210101:|
10103831|Todd P Kilpatrick Atty|6923  Lakewood Dr|University Place|WA|98467|-122.507552|47.195134||||
10109731|Paktek Inc|7307  82nd Street Ct|Lakewood|WA|98498|-122.534687|47.182531||52510100|52510100:|
10110667|Palace Law Offices|4009  Bridgeport Way|Tacoma|WA|98466|-122.534777|47.220436||81119902|81119902:|
10144629|Papa John's Pizza|14909  Union Ave|Lakewood|WA|98498|-122.552107|47.122402|168|58120601|58120601:|
10147568|Papa Murphy's Take 'N' Bake Pizza|2315 N Pearl St|Tacoma|WA|98406|-122.514413|47.269153|852|58120302|58120302:|
10147739|Papa Murphy's Take 'N' Bake Pizza|3833  Pacific Ave|Tacoma|WA|98418|-122.433429|47.222034|852|58120302|58120302:|
10147740|Papa Murphy's Take 'N' Bake Pizza|11012  Canyon Rd|Puyallup|WA|98373|-122.357382|47.156189|852|58120302|58120302:|
10147746|Papa Murphy's Take 'N' Bake Pizza|3828  Bridgeport Way|Tacoma|WA|98466|-122.537286|47.222854|852|58120302|58120302:|
10147891|Papa Murphy's Take 'N' Bake Pizza|4423 S Meridian |Puyallup|WA|98373|-122.291615|47.148884|852|58120302|58120302:|
10149627|Palace Restaurant|8718 S Tacoma Way|Lakewood|WA|98499|-122.485179|47.178195||58120500|58120500:|
1015155|Arby's|15021  Pacific Ave|Tacoma|WA|98444|-122.434195|47.120607|432|58120307|58120307:|
1016777|Arby's|12528  Meridian |Puyallup|WA|98373|-122.293572|47.142237|432|58120307|58120307:58120302:|
1017309|Arby's|6330  6th Ave|Tacoma|WA|98406|-122.521902|47.254976|432|58120307|58120307:|
10180047|Monterra Apartment Homes|416  111th Street Ct|Tacoma|WA|98445|-122.424783|47.15567||65130000|65130000:72999901:|
10181022|Park Place Apts|6100  Lakewood Dr|University Place|WA|98467|-122.51013|47.201204||65130000|65130000:72999901:|
10188735|Parker Paint|10109  128th St|Puyallup|WA|98373|-122.293742|47.14036||52610000|52610000:|
10188758|Parker Paint|3003 S Tacoma Way|Tacoma|WA|98409|-122.476317|47.228282||51980100|51980100:28510000:52310201:|
10191245|Parkhurst Apartments|5202 S 12th St|Tacoma|WA|98465|-122.50552|47.249628||65130000|65130000:72999901:|
10192289|Central Pierce Fire & Rescue|301  146th St|Tacoma|WA|98444|-122.43608|47.124837||92240000|92240000:50870500:59990100:|
10192291|Parkland Denture Ctr|12502  Pacific Ave|Tacoma|WA|98444|-122.434932|47.143159||80210000|80210000:|
10192314|Parkland First Baptist Church|1023  Lafayette St|Tacoma|WA|98444|-122.448732|47.155105||86610103|86610103:|
10192454|Parkland Physical Therapy Pllc|12001  Pacific Ave|Tacoma|WA|98444|-122.433753|47.148076||80490200|80490200:|
10192468|Parkland Putters|10636  Sales Rd|Tacoma|WA|98444|-122.464116|47.159907||79990205|79990205:|
10192509|Parkland Transmission|131  114th St|Tacoma|WA|98444|-122.43316|47.153563||75370101|75370101:55310103:|
10194092|Park's Denture Clinic|8717 S Tacoma Way|Lakewood|WA|98499|-122.48362|47.178316||80210202|80210202:80729903:|
10196171|Parkside Reality|14609  Pacific Ave|Tacoma|WA|98444|-122.434246|47.123782||65310100|65310100:|
10199383|Parkway Presbyterian Church|714  138th St|Tacoma|WA|98445|-122.42199|47.130757||86610125|86610125:|
10199692|Parkway Tavern|313 N I St|Tacoma|WA|98403|-122.453661|47.263238||58130105|58130105:|
10199823|VCA Parkway Animal Hospital|14107  Pacific Ave|Tacoma|WA|98444|-122.433941|47.128979||07420000|07420000:|
10200040|Parkwood Apartments|14209  C St|Tacoma|WA|98444|-122.436675|47.127115||65130000|65130000:72999901:|
1020300|Arcadia Montessori Preschool & Kindergarten|6312 N 30th St|Tacoma|WA|98407|-122.520916|47.274256||83519903|83519903:82119904:|
10246876|Bert Paul Real Estate Inc|2100 N 30th St|Tacoma|WA|98403|-122.463879|47.274633||65310100|65310100:|
10262183|Pay-Mark Systems|1019  Regents Blvd|Tacoma|WA|98466|-122.516877|47.239275||87219901|87219901:|
1026563|Architectural Building Products|505  Puyallup Ave|Tacoma|WA|98421|-122.427734|47.241138||||
10268309|Payless Shoesource|4502 S Steele St|Tacoma|WA|98409|-122.468145|47.218244|169|56610000|56610000:|
10273328|Payless Shoesource|3304 S 23rd St|Tacoma|WA|98405|-122.479158|47.238013|169|56610000|56610000:|
10275380|PC Gamers Tech Inc|17415  Pacific Ave|Spanaway|WA|98387|-122.434108|47.098776||57340000|57340000:73789901:|
10279822|P Dq Deli|5318  128th St|Tacoma|WA|98446|-122.358035|47.13953||58120305|58120305:54119902:|
10281830|Ron Kempe|214 E Pioneer |Puyallup|WA|98372|-122.291689|47.190176||86610118|86610118:|
10287965|Peanut Sauce Thai|5003  Tacoma Mall Blvd|Tacoma|WA|98409|-122.463388|47.21162||58120115|58120115:|
10290080|Pearl Street Self Storage|1001 N Pearl St|Tacoma|WA|98406|-122.514161|47.258106||42259903|42259903:42260200:42269901:|
10293799|Pease Construction|3815  100th St|Lakewood|WA|98499|-122.487997|47.167653||15210000|15210000:15420000:|
10299884|Pediatrics PM|1910 S Meridian |Puyallup|WA|98371|-122.294223|47.173216||80110516|80110516:80110204:|
10301111|Pee Wee Tavern|7052  Pacific Ave|Tacoma|WA|98408|-122.434462|47.192372||58130105|58130105:|
10302955|Tomlinson Linen Service|2902 S 12th St|Tacoma|WA|98405|-122.474215|47.249788||72130204|72130204:|
10303875|Pegasus|1320  Puyallup Ave|Tacoma|WA|98421|-122.414508|47.2419||58120500|58120500:58130103:|
10314021|Ovidio MD Penalver PS MD|319  5th St|Puyallup|WA|98371|-122.298599|47.189821||80119904|80119904:80310000:|
10317370|Peninsula Cleaners II|2315 N Pearl St|Tacoma|WA|98406|-122.51569|47.268843||72160000|72160000:|
10329858|Shell Lubricants|4620  95th St|Lakewood|WA|98499|-122.499002|47.17088||51720204|51720204:|
10335208|Pentagon Valuation Inc|2719  Rochester St|Tacoma|WA|98466|-122.531373|47.234765||65319901|65319901:|
10339799|Peoples Cleaners|626 S Sprague Ave|Tacoma|WA|98405|-122.463345|47.254796||72160000|72160000:|
10340340|Peoples Injury Network Northwest|6704  Tacoma Mall Blvd|Tacoma|WA|98409|-122.464624|47.195832||80490200|80490200:|
10353599|Perfect Look|2629 N Pearl St|Tacoma|WA|98407|-122.515688|47.271465|1433|72310000|72310000:|
10358276|Performance Bicycle|2220 S 37th St|Tacoma|WA|98409|-122.468425|47.223186|2523|59419902|59419902:|
10359228|Performance Engine Development|3036  River Rd|Tacoma|WA|98443|-122.396777|47.237265||75399904|75399904:|
10364087|Perimeter Fence|3402 S D St|Tacoma|WA|98418|-122.436646|47.229671||17999912|17999912:52119907:|
10367807|Perky's Espresso|11811  Canyon Rd|Puyallup|WA|98373|-122.356796|47.148645||58120304|58120304:54990201:|
10373666|Philip DDS Jones PS|2102 N Pearl St|Tacoma|WA|98406|-122.516899|47.267592||80210101|80210101:|
1037626|Tacoma Soccer Center|2610  Bay St|Tacoma|WA|98421|-122.408994|47.240091||79970404|79970404:79410105:|
10396746|Peter's Grocery|1307 S 38th St|Tacoma|WA|98418|-122.451016|47.223272||54110000|54110000:|
10412831|Jon M Pettibon DC|3837 S 12th St|Tacoma|WA|98405|-122.488636|47.250277||80410101|80410101:|
1042789|Sanders James M|15220  44th Ave|Tacoma|WA|98446|-122.370881|47.117508||||
1042872|Aries Mechanical Inc|1516 S Fife St|Tacoma|WA|98405|-122.470779|47.245888||17110401|17110401:|
10437620|Phil's Automotive|3912 N 34th St|Tacoma|WA|98407|-122.489459|47.278356||75390300|75390300:75490000:75380000:|
10439310|Phnom Pich Jewelry|4002 E Portland Ave|Tacoma|WA|98404|-122.408092|47.220545||59440000|59440000:|
10439455|Pho Bac Cafe|1115 S 11th St|Tacoma|WA|98405|-122.452105|47.2521||58129902|58129902:|
10439512|Pho V & V Vietnamese Restaurant|5434 S Tacoma Way|Tacoma|WA|98409|-122.483926|47.207669||58120500|58120500:|
10440077|Phoebe House Association|1419  Yakima Ave|Tacoma|WA|98405|-122.446039|47.248699||86410400|86410400:|
10470577|Pier 1 Imports|4621 S Meridian |Puyallup|WA|98373|-122.2927|47.1513|510|57190000|57190000:57120000:|
10470657|Pier 1 Imports|4301 S Steele St|Tacoma|WA|98409|-122.467109|47.21809|510|57190000|57190000:57120000:|
10470950|Pier 1 Imports|10310  59th Ave|Lakewood|WA|98499|-122.5155|47.1638|510|57190000|57190000:57120000:|
10472452|Pierce County|16715  Meridian |Puyallup|WA|98375|-122.293236|47.10323||45810301|45810301:91990403:|
10472619|Pierce County Housing Authority|603  Polk St|Tacoma|WA|98444|-122.43926|47.156938||95319902|95319902:72999901:|
10472645|Pierce County|3602  Pacific Ave|Tacoma|WA|98418|-122.435058|47.225931||92210405|92210405:92119900:94319910:91990100:92220102:83990101:80939900:92240403:83220306:79920101:91990403:83220500:79999910:72990600:65310100:|
10472681|County Government Pierce County|1420  112th St|Tacoma|WA|98445|-122.409673|47.152004||91990100|91990100:91990403:|
10472689|Pierce County Sewer Utilities|10311  Chambers Creek Rd|University Place|WA|98467|-122.576977|47.192619||35890300|35890300:|
10472720|Pierce County Sheriffs Office|910  Tacoma Ave|Tacoma|WA|98402|-122.445047|47.254574||92210204|92210204:|
10473528|Pierce Mortgage Plus|409 E Pioneer |Puyallup|WA|98372|-122.288787|47.190707||61629900|61629900:|
10475378|Farm Service Agency|1011 E Main |Puyallup|WA|98372|-122.280851|47.192391|1053|91990401|91990401:96410401:07629900:95120401:|
10488284|Pine Cone Cafe|7912  27th St|Tacoma|WA|98466|-122.543709|47.234882||58129902|58129902:72990501:|
10492511|Pine Street Landing Restaurant|3832 S Pine St|Tacoma|WA|98409|-122.474053|47.22108||58120500|58120500:|
10498460|Pink Coconut Tanning Boutique|10011  Bridgeport Way|Lakewood|WA|98499|-122.509674|47.166628||72990105|72990105:|
10498463|Pink Coconut Tanning Boutique|12020  Meridian |Puyallup|WA|98373|-122.294754|47.146033||72990105|72990105:|
10498465|Pink Coconut Tanning Boutique|10921  Canyon Rd|Puyallup|WA|98373|-122.35697|47.157022||72990105|72990105:|
10501988|Pinnacle Lumber And Plywood|3600  108th St|Lakewood|WA|98499|-122.48495|47.159211||52110100|52110100:50310000:|
10507272|Pioneer Court Apartments|507 W Stewart |Puyallup|WA|98371|-122.300463|47.19399||65130000|65130000:|
10508111|Pioneer Grocery|1522 E Pioneer |Puyallup|WA|98372|-122.273816|47.188449||54110000|54110000:|
1051363|Ark Institute of Learning|1916 S Washington St|Tacoma|WA|98405|-122.485266|47.242088||82110400|82110400:|
10528170|Pizza Hut|115  2nd St|Puyallup|WA|98372|-122.291548|47.192263|176|58120600|58120600:58120302:|
10528178|Pizza Hut|5322  Pacific Ave|Tacoma|WA|98408|-122.434406|47.208444|176|58120600|58120600:58120302:|
10536925|Pizza Time-Spanaway|17316  Pacific Ave|Spanaway|WA|98387|-122.435088|47.100083||58120600|58120600:|
10536977|Pizza Time|316 E Pioneer |Puyallup|WA|98372|-122.290309|47.190168||58120600|58120600:|
10546959|Planned Parenthood|813  Martin Luther King Jr Way|Tacoma|WA|98405|-122.451889|47.254618|864|80930302|80930302:|
10559397|Law Office of Danny E Platter|112  3rd St|Puyallup|WA|98371|-122.296723|47.191306||81119902|81119902:|
10564974|Plaza Guerrero|816  72nd St|Tacoma|WA|98404|-122.420604|47.191653||54110000|54110000:|
10565146|Plaza Ii Music Center|12020  Meridian |Puyallup|WA|98373|-122.294754|47.146033||57360000|57360000:|
10577209|Plumb Signs, Inc|909 S 28th St|Tacoma|WA|98409|-122.445641|47.235061||50999912|50999912:50630504:|
10584178|Pnw International|515  11th St|Puyallup|WA|98371|-122.307688|47.196144||54110000|54110000:87420106:|
10589307|Point Defiance Aids Projects|535  Dock St|Tacoma|WA|98402|-122.437735|47.258901||80990200|80990200:80110510:|
10589310|Point Defiance Clock Shop|5528 N 45th St|Tacoma|WA|98407|-122.512037|47.289598||59440101|59440101:76310101:|
10593389|Polar Treats Llc|1402  108th St|Tacoma|WA|98444|-122.452594|47.158752||51439904|51439904:20240000:|
10607532|Pomodoro Restaurant & Bar|3819 N 26th St|Tacoma|WA|98407|-122.487689|47.271204||58120500|58120500:|
1061709|Armijo Law Office|2201 N 30th St|Tacoma|WA|98403|-122.465741|47.275045||81119902|81119902:|
10623192|Pops Deli Market|7202  6th Ave|Tacoma|WA|98406|-122.533091|47.25519||58120305|58120305:54119905:|
10627907|Port of Call Tax & Accounting|7406  27th St|Tacoma|WA|98466|-122.53545|47.234769||87210000|87210000:72910000:|
10631564|Lakewood Pub & Grill|7505  Steilacoom Blvd|Lakewood|WA|98498|-122.538103|47.178487||58120000|58120000:|
10635185|Portland Avenue Clinic Management|4314 E Portland Ave|Tacoma|WA|98404|-122.408073|47.217731||80110202|80110202:|
10635187|Portland Avenue Nursery|1409 E 59th St|Tacoma|WA|98404|-122.409018|47.203759||52610300|52610300:50830200:|
10635193|Portland Avenue Evangelical Free Church|6402 E Portland Ave|Tacoma|WA|98404|-122.408001|47.198844||86610114|86610114:|
10635196|Portland Ave Self Storage|1421 E 44th St|Tacoma|WA|98404|-122.40884|47.217693||42259903|42259903:42260200:42269901:|
10643322|Post Industrial Press|5211 S Washington St|Tacoma|WA|98409|-122.484693|47.208786||27590603|27590603:|
10654219|Powder Coating Systems|109 S 25th St|Tacoma|WA|98402|-122.43456|47.239577||73899969|73899969:|
10668987|Practical Solutions|5366  Po Box |Tacoma|WA|98415|-122.443|47.253||87119903|87119903:|
10673523|Praise Chapel Church of God In Christ|519  3rd St|Puyallup|WA|98372|-122.290423|47.196094||86610112|86610112:|
10681051|Precious Paws Pet Salon|13415  124th Ave|Puyallup|WA|98374|-122.264035|47.133858||07529901|07529901:59991103:|
10681457|Precious Years Preschool & Daycare|17516  10th Ave|Spanaway|WA|98387|-122.418312|47.097521||83519905|83519905:|
10683508|Precision Automotive|3723  6th Ave|Tacoma|WA|98406|-122.486353|47.255535||75390000|75390000:75490000:75380000:|
10689137|Precision Machine Works Inc|1952  Milwaukee Way|Tacoma|WA|98421|-122.404561|47.253653||50720000|50720000:34230000:|
10691694|Precision Repair Co|2102  24th St|Puyallup|WA|98372|-122.263847|47.171567||75390000|75390000:75490000:75380000:|
10699488|Preflex Digital Prepress Services Company|4620  95th St|Lakewood|WA|98499|-122.499002|47.17088||27520000|27520000:|
10713418|Premium Motors|2403 S Tacoma Way|Tacoma|WA|98409|-122.468674|47.231603||55219901|55219901:55219902:|
10718845|Prescription Optical|1703 S Meridian |Puyallup|WA|98371|-122.292431|47.175138||59959903|59959903:|
10731096|Pretzel Time|4502 S Steele St|Tacoma|WA|98409|-122.468145|47.218244|867|54619908|54619908:|
10732641|Charles D Prewitt MD PS|1901 S Union Ave|Tacoma|WA|98405|-122.479933|47.241547||80119904|80119904:80310000:|
10735835|Price-Peterson Travel Shoppe Inc|3825 S Meridian |Puyallup|WA|98373|-122.2927|47.1546||47240000|47240000:|
10747529|Prime Time Latchkey Program|901 N J St|Tacoma|WA|98403|-122.462299|47.264953||83510000|83510000:|
10766682|Priority Instructional Center|11300  Bridgeport Way|Lakewood|WA|98499|-122.504657|47.154646||82490000|82490000:82440000:|
1077832|Arrow Cleaning|4330 S 41st St|Tacoma|WA|98409|-122.495614|47.219804||72170000|72170000:73490104:|
10787552|Pro Vac Drain Cleaning|6622  112th St|Puyallup|WA|98373|-122.340685|47.154162||76990403|76990403:|
10792626|Proctor Fuel Stop|3907 S 12th St|Tacoma|WA|98405|-122.489258|47.250315||55410000|55410000:54110200:|
10792839|Proctor Shoe Repair|3817 N 26th St|Tacoma|WA|98407|-122.487665|47.271204||72510104|72510104:76991901:|
10797182|Professional Registry of Nursing|310 N Meridian |Puyallup|WA|98371|-122.293938|47.193187||80820000|80820000:80490500:|
10798851|Professional Bookkeeping Service|3018 S Mullen St|Tacoma|WA|98409|-122.501658|47.233484||87219901|87219901:|
10808602|Professional Practice Systems|111  132nd St|Tacoma|WA|98444|-122.432403|47.137533||||
10808936|Real Estate Investment Services|4424  6th Ave|Tacoma|WA|98406|-122.497253|47.255071||62110100|62110100:65310100:|
10817550|Progressive Automotive|3036  68th Ave|Tacoma|WA|98466|-122.528128|47.232274||75399904|75399904:|
10829974|Legacy Propane|16114  Pacific Ave|Spanaway|WA|98387|-122.435198|47.110452||51720102|51720102:|
10836193|Prosperity Wellness Center|5001  112th St|Tacoma|WA|98446|-122.361588|47.154829||80690102|80690102:|
10836255|Prosport Chiropractic|616  10th St|Puyallup|WA|98372|-122.282194|47.186843||80410101|80410101:|
1085393|Art Concepts|924  Broadway |Tacoma|WA|98402|-122.440766|47.254343||||
10864503|Public Storage|7701  Bridgeport Way|Lakewood|WA|98499|-122.517618|47.187824|183|42259903|42259903:50879907:|
10864757|Public Storage|4103 S Orchard St|Tacoma|WA|98466|-122.504209|47.219636|183|42259903|42259903:50879907:|
10871422|Puget Sound Assisted Living Inc|7716  Bridgeport Way|Lakewood|WA|98499|-122.518949|47.18705||83619900|83619900:80820000:80490500:|
10871481|Puget Sound Chiropractic|212 S 37th St|Tacoma|WA|98418|-122.434861|47.224426||80410101|80410101:|
10871550|Puget Sound Engineering Supply & Blue Printing|1416 E Main |Puyallup|WA|98372|-122.275549|47.190987||27599900|27599900:87119900:|
10871604|Puget Sound Amateur Hockey Assn.|1918  Stewart St|Tacoma|WA|98421|-122.413606|47.251943||79970102|79970102:|
10871606|Puget Sound Home Health Care|7714  Bridgeport Way|Lakewood|WA|98499|-122.518607|47.18731||80820000|80820000:|
10871670|Puget Sound Meats|2615 E N St|Tacoma|WA|98421|-122.413208|47.239654||51470000|51470000:|
10871798|Puget Sound Pool & Spa Repair|3921 N 14th St|Tacoma|WA|98406|-122.490033|47.263004||73899948|73899948:|
10871832|Puget Sound Recycling|222  107th St|Tacoma|WA|98444|-122.435474|47.159775||49539905|49539905:|
10871897|Puget Sound Title|5350  Orchard St|University Place|WA|98467|-122.506022|47.208382||65419901|65419901:|
10878781|Punleurpich Jewelry|4314 E Portland Ave|Tacoma|WA|98404|-122.408073|47.217731||59440000|59440000:|
10884314|Water to Go|7701 S Hosmer St|Tacoma|WA|98408|-122.462255|47.187732|2005|59630101|59630101:54990205:|
10884317|Water To Go|5401  6th Ave|Tacoma|WA|98406|-122.508332|47.256093|2005|59630101|59630101:50780202:|
10890043|Auto Source Ii|601  2nd St|Puyallup|WA|98371|-122.294657|47.187092||75490000|75490000:75390000:|
10890050|Puyallup Carpet Center|115 S Meridian |Puyallup|WA|98371|-122.293282|47.191231||57139901|57139901:57139904:|
10890057|Puyallup Nazarene Church|1026  7th Ave|Puyallup|WA|98371|-122.308147|47.184929||86610110|86610110:|
10890067|Puyallup Endocrine Clinic|1011 E Main |Puyallup|WA|98372|-122.280851|47.192391||80110102|80110102:80110202:|
10890100|Puyallup Playcare Center Inc|120  Mcelroy Pl|Puyallup|WA|98371|-122.321125|47.191074||83510000|83510000:82119904:|
10890111|Senior Nutrition Program|412 W Pioneer |Puyallup|WA|98371|-122.297961|47.189864||83220103|83220103:|
10890117|Subway|347 S Meridian |Puyallup|WA|98371|-122.293312|47.18878|214|58120313|58120313:55410000:|
10890120|Puyallup Transmission|629 E Pioneer |Puyallup|WA|98372|-122.285333|47.190652||75370101|75370101:55310103:55110000:|
10890158|Puyallup Valley Jam Factory|1454  Po Box |Puyallup|WA|98371|-122.3173|47.1981||54119900|54119900:|
10890160|John K Miller Therapist|2520  7th St|Puyallup|WA|98374|-122.287367|47.166998||||
10895179|Quality Food Center|9314  Bridgeport Way|Lakewood|WA|98499|-122.5206|47.172221|2991|54110101|54110101:|
1089796|Artco Craft & Frame Shop|5401  6th Ave|Tacoma|WA|98406|-122.508332|47.256093||59991606|59991606:59450101:|
10907408|Quality Care Auto Repair|1005  112th St|Tacoma|WA|98444|-122.447266|47.155662||75390402|75390402:75490000:|
10911062|Quality Discount Supplies & Services|1211  Regents Blvd|Tacoma|WA|98466|-122.519628|47.238953||50849900|50849900:|
1091733|Artful Lodger Bed & Breakfeast|515  5th St|Puyallup|WA|98371|-122.298562|47.18749||70110401|70110401:|
10918759|Quality Office Design|2624  112th St|Lakewood|WA|98499|-122.472312|47.154942||73199901|73199901:73891800:|
10919328|Quality Painting Inc|15111  105th Avenue Ct|Puyallup|WA|98374|-122.288213|47.118827||17219900|17219900:|
10921467|Buddy's Home Furnishings|15003  Meridian |Puyallup|WA|98375|-122.292477|47.120157||73599906|73599906:73590702:73590701:|
10932533|Queen Nails|5738 N 26th St|Tacoma|WA|98407|-122.513757|47.270953||72310104|72310104:|
10944086|Quick Stop Gi Surplus|15023  Union Ave|Lakewood|WA|98498|-122.553485|47.121596||54110200|54110200:53999901:|
1094955|Artifex Phone|731  Commerce St|Tacoma|WA|98402|-122.439985|47.256858||73891801|73891801:73360103:|
10970935|R & R Investments|6429  South Tacoma Way|Tacoma|WA|98409|-122.483507|47.198884||67999900|67999900:|
10977115|R A S Granite And Marble|1931  Fawcett Ave|Tacoma|WA|98402|-122.440432|47.243563||52119904|52119904:|
10982723|Re Electric|1401  Center St|Tacoma|WA|98409|-122.452096|47.23406||17319903|17319903:|
10984227|R Food Mart|11401  Pacific Ave|Tacoma|WA|98444|-122.433738|47.153036||54119905|54119905:54110200:|
10986915|R J D Furniture Repair|7221 S Oakes St|Tacoma|WA|98409|-122.472077|47.191205||76410200|76410200:|
10989139|R K Getty Corp|1145  Broadway |Tacoma|WA|98402|-122.439382|47.25166||65310100|65310100:|
11003423|Raceways Technology Mfg Inc|1427 E 26th St|Tacoma|WA|98421|-122.413044|47.240666||75399904|75399904:34989907:|
11011561|Radio Shack|10009  Bridgeport Way|Lakewood|WA|98499|-122.508461|47.166164|185|59999910|59999910:59990600:48129901:|
11011570|Radio Shack|16116  Meridian |Puyallup|WA|98375|-122.293599|47.109822|185|59999910|59999910:59990600:48129901:|
11013728|Radio Shack|3823 N 26th St|Tacoma|WA|98407|-122.487738|47.271204|185|59999910|59999910:59990600:48129901:|
11017111|Radio Shack|1314  72nd St|Tacoma|WA|98404|-122.410797|47.190835|185|59999910|59999910:|
11026731|Rain Dragon Antiquities|1002 E F St|Tacoma|WA|98421|-122.430176|47.256379||59320200|59320200:|
11031321|Rainbow International Restoration|6035 S Adams St|Tacoma|WA|98409|-122.48624|47.201616||72170000|72170000:17999926:15210104:|
11037044|Rainier Case Management|10209  Bridgeport Way|Lakewood|WA|98499|-122.506994|47.165052||83220400|83220400:|
11037067|Rainier Cleaners|7315  27th St|Tacoma|WA|98466|-122.534821|47.235863||72160000|72160000:|
110397868|Cynthia Kertesz MD|1628 S Mildred St|Tacoma|WA|98465|-122.528384|47.245439||80119904|80119904:|
110398540|Penske Truck Rental|13015  Canyon Rd|Puyallup|WA|98373|-122.356872|47.137599|106|75139902|75139902:|
110398942|Puyallup South Hill Laundry|3850 S Meridian |Puyallup|WA|98373|-122.293441|47.155193||72190000|72190000:72159903:|
110398949|H&R Block|101 S 38th St|Tacoma|WA|98418|-122.43178|47.223416|29|72910101|72910101:|
110401864|Gregor Konzelman Ph.D.|426 N Meridian |Puyallup|WA|98371|-122.294131|47.19472||83220500|83220500:80490400:|
110402002|MEGA Pharmacy and Mail Center|8001 S Hosmer St|Tacoma|WA|98408|-122.46234|47.184361||59129901|59129901:54990103:|
110402019|KFC|2006  6th Ave|Tacoma|WA|98403|-122.463377|47.255461|119|58129904|58129904:|
11046541|Western Inn|9920 S Tacoma Way|Lakewood|WA|98499|-122.48406|47.166917||70110400|70110400:70110300:|
110517895|Koto N Philly|14803  Pacific Ave|Tacoma|WA|98444|-122.4343|47.122675||58120000|58120000:|
110524825|Well Child Clinic|3629 S D St|Tacoma|WA|98418|-122.435053|47.225167||||
110524827|Methadone Treatment Program|3629 S D St|Tacoma|WA|98418|-122.435053|47.225167||||
110524838|King's Gold Jewelry|8012 S Tacoma Way|Lakewood|WA|98499|-122.485175|47.183889||59440000|59440000:|
110524862|T-Mobile|2505 S 38th St|Tacoma|WA|98409|-122.469891|47.223113|1347|48129901|48129901:59990600:|
110524891|El Jalapeno|1012  72nd St|Tacoma|WA|98404|-122.416794|47.19161||||
110524901|Stewardship Foundation|1145  Broadway |Tacoma|WA|98402|-122.439382|47.25166||||
110524987|Bates Technical College|2320 S 19th St|Tacoma|WA|98405|-122.467977|47.241813||82210100|82210100:82110300:|
110525036|Broadway Center For The Performing Arts|901  Broadway |Tacoma|WA|98402|-122.440534|47.255173||91990404|91990404:|
110525155|Pallet Services|1651  Lincoln Ave|Tacoma|WA|98421|-122.40876|47.255013||24480200|24480200:|
110568408|Bailey & Sons Spray Service|5718  104th St|Puyallup|WA|98373|-122.352795|47.161271||73420200|73420200:|
110568420|South Sound Neuro Surgery|1519  3rd St|Puyallup|WA|98372|-122.290182|47.17686||80110110|80110110:80310000:|
11060980|Randall's Plumbing|4227 S Meridian |Puyallup|WA|98373|-122.292316|47.151472||17110200|17110200:|
110728896|Graphic Services Inc|708  Broadway |Tacoma|WA|98402|-122.441475|47.257375||57340102|57340102:|
110854266|Impressions|8012 S Tacoma Way|Lakewood|WA|98499|-122.485175|47.183889||56210000|56210000:|
110854268|Chung Ki Wa Inc|8601 S Tacoma Way|Lakewood|WA|98499|-122.483333|47.179137||||
110854273|Joseph Z Zebroski|10518  South Tacoma Way|Lakewood|WA|98499|-122.484208|47.162066||58120801|58120801:|
110881091|Verizon Wireless|5700  100th St|Lakewood|WA|98499|-122.511585|47.166129|1348|48129901|48129901:59990600:|
11089434|Rayman Northwest Transmission|1134 E Main |Puyallup|WA|98372|-122.278823|47.191706||75390000|75390000:75380000:|
11092663|Raymond's Foremost Car & Truck Service|130  114th St|Tacoma|WA|98444|-122.4336|47.153||75389902|75389902:75390000:75490000:|
110987013|American Tower|1423 S Grant Ave|Tacoma|WA|98405|-122.459002|47.247194|1376|48120000|48120000:34419908:|
110987022|Davita Dialysis Center|1423  Pacific Ave|Tacoma|WA|98402|-122.437655|47.250004|1476|80110000|80110000:80920101:80310000:|
110987034|Audio Visual Factory|1500  Broadway |Tacoma|WA|98402|-122.439232|47.248073||73590501|73590501:|
110987036|Louie Licsw Hallie Cht|2205 N 30th St|Tacoma|WA|98403|-122.4663|47.2748||83220611|83220611:83220500:|
110987040|Philip Prudhomme Lmhc|3315 S 19th St|Tacoma|WA|98405|-122.480336|47.243304||83220600|83220600:83220500:|
110987048|Innovative Hardwood Flooring Inc|1512  Center St|Tacoma|WA|98409|-122.45382|47.233594||17529900|17529900:17719903:52119908:52110101:|
110987052|O S B Inc|1901 S Union Ave|Tacoma|WA|98405|-122.479933|47.241547||80210000|80210000:|
110987059|Pioneer Human Services|758  St Helens Ave|Tacoma|WA|98402|-122.441544|47.255875||||
11098707|Razor's Edge|9501  126th St|Puyallup|WA|98373|-122.302413|47.142342||72410000|72410000:72310000:|
110987070|Ssp Shakers Deli|714 S 27th St|Tacoma|WA|98409|-122.442329|47.235316||58120305|58120305:|
110987073|ATI Physical Therapy|11019  Canyon Rd|Puyallup|WA|98373|-122.356979|47.156123||80490200|80490200:80110521:83220400:|
110987112|Bridgeview Apartments|1121 S I St|Tacoma|WA|98405|-122.44825|47.251525||72999901|72999901:65130000:|
110987128|Tacoma Housing Authority|2302  6th Ave|Tacoma|WA|98403|-122.467711|47.255033||95319902|95319902:|
110987174|Rent-A-Center|601 S Meridian |Puyallup|WA|98371|-122.293451|47.187104|189|73590702|73590702:57220202:57120000:|
110987178|Rw Commercial Loan Services|409 E Pioneer |Puyallup|WA|98372|-122.288787|47.190707||61639900|61639900:|
110987180|Star Nails|716 E Main |Puyallup|WA|98372|-122.285391|47.191964||72310104|72310104:|
110987208|Chatelain Property|4618  Alameda Ave|Tacoma|WA|98466|-122.516258|47.214517||65310204|65310204:|
110987211|West Coast Auto and Truck|6229 S Tacoma Way|Tacoma|WA|98409|-122.483284|47.19996||42130000|42130000:42120000:|
110987214|GEICO Insurance Agent|12930  Pacific Hwy|Lakewood|WA|98499|-122.521423|47.13974|1502|64110000|64110000:63319902:|
110987219|Curbside Motors|6802 S Tacoma Way|Tacoma|WA|98409|-122.484275|47.195362||55219902|55219902:55119901:|
110987220|Olympic Auto Center|6629 S Tacoma Way|Tacoma|WA|98409|-122.48328|47.196395||75390000|75390000:75490000:75380000:|
110987223|Hall Teresa A Helping Hand Massage Therapy Inc|7800  Pacific Ave|Tacoma|WA|98408|-122.434674|47.185832||80490200|80490200:72990201:|
110987234|"Babies ""R"" US"|2502 S 48th St|Tacoma|WA|98409|-122.469032|47.213271|2195|59991800|59991800:56419902:|
110987250|Rumors A Salon|6430  Tacoma Mall Blvd|Tacoma|WA|98409|-122.463381|47.198381||72310000|72310000:|
110987257|Teriyaki Kitchen|101 S 38th St|Tacoma|WA|98418|-122.43178|47.223416||58120109|58120109:|
110987258|Automotive Transport Service|3215 S Tacoma Way|Tacoma|WA|98409|-122.478704|47.22739||42139901|42139901:|
110987265|Compliance Services Intl|7501  Bridgeport Way|Lakewood|WA|98499|-122.518266|47.189189||87489905|87489905:|
110987269|Mattress Depot USA|1917 S 72nd St|Tacoma|WA|98408|-122.462001|47.191079||57120102|57120102:|
110987278|World Nails|1319 S 38th St|Tacoma|WA|98418|-122.451152|47.223273||72310104|72310104:|
110987280|Christine's Hair Workx|7430  Fawcett Ave|Tacoma|WA|98408|-122.438335|47.189093||72319901|72319901:|
110987282|Musicians Exchange|5429 S Tacoma Way|Tacoma|WA|98409|-122.483522|47.207709||76991000|76991000:|
110987289|Cash 1|7231 S Tacoma Way|Tacoma|WA|98409|-122.483247|47.190762||60999901|60999901:|
110987295|First Things 1st|6332 S Park Ave|Tacoma|WA|98408|-122.442261|47.199386||72410000|72410000:|
110987300|Edward's Exteriors|2301  120th St|Tacoma|WA|98445|-122.398568|47.148177||57129905|57129905:52110000:15210103:|
110987310|COUNTRY Financial|7403  Lakewood Dr|Lakewood|WA|98499|-122.507987|47.190339|55|64110000|64110000:63319902:63110000:87429908:|
110987314|Jo-Ann Fabrics and Crafts|4104  Tacoma Mall Blvd|Tacoma|WA|98409|-122.467205|47.220811|117|59990202|59990202:59450101:76991809:|
110987315|Subway|101 S 38th St|Tacoma|WA|98418|-122.43178|47.223416|214|58120313|58120313:|
110987341|Parkland Sleep Center|11122  Pacific Ave|Tacoma|WA|98444|-122.434724|47.155611||57120102|57120102:|
110987342|Cigarland Canyon Road|11012  Canyon Rd|Puyallup|WA|98373|-122.358672|47.155763||59930000|59930000:|
110987343|J and J Income Tax LLC|1004  72nd St|Tacoma|WA|98404|-122.416882|47.19161||72910101|72910101:|
110987344|Fancy Hair Salon|1314  72nd St|Tacoma|WA|98404|-122.410797|47.190835||72310000|72310000:|
110987349|Riipinen Surveying|10305  Canyon Rd|Puyallup|WA|98373|-122.35673|47.162681||87130000|87130000:|
110987351|Jet Door LLC|1832  112th St|Tacoma|WA|98445|-122.403317|47.153115||50310300|50310300:24310108:|
110987356|Cascade Real Estate School|227  174th St|Spanaway|WA|98387|-122.435346|47.099444||82490202|82490202:|
110987362|ABC Sun Control, Inc.|9722  Canyon Rd|Puyallup|WA|98373|-122.357819|47.168183||52110200|52110200:|
110987369|Dakota Bobs Cheap Storage|10812  Aqueduct Dr|Tacoma|WA|98445|-122.422885|47.161492||42259900|42259900:42260200:|
110987372|Euro Collision Inc|11306  Steele St|Lakewood|WA|98499|-122.46815|47.154309||75320404|75320404:75320401:75320202:|
110987378|Mcmains Roofing Inc|223  108th St|Tacoma|WA|98444|-122.435483|47.159527||15210000|15210000:15420000:17610103:|
110987383|Senior Nutrition Program|12115  Park Ave|Tacoma|WA|98444|-122.438388|47.147249||83220103|83220103:|
110987385|Lady Luck S Cowgirl Up Steakhouse & Saloon|14114  Pacific Ave|Tacoma|WA|98444|-122.435427|47.128909||58120802|58120802:|
110987404|Tool Liquidators|8638  Pacific Ave|Tacoma|WA|98444|-122.434753|47.177835||73891407|73891407:52510103:|
110987424|United Rentals|2218  112th St|Tacoma|WA|98445|-122.399151|47.1546|1372|73590500|73590500:73530000:|
110987444|Edgeworks Climbing|6102 N 9th St|Tacoma|WA|98406|-122.520135|47.257138||79910101|79910101:|
110987451|Savvy Nails|7802  27th St|Tacoma|WA|98466|-122.540903|47.235057||72310104|72310104:79910103:|
110987468|George Wheeler|7350  Cirque Dr|University Place|WA|98467|-122.535751|47.21322||42139904|42139904:42129908:|
110987472|Windermere Mortgage Services|7525  28th St|Tacoma|WA|98466|-122.537656|47.234669||61639900|61639900:61620000:|
110987491|United States Government|950  Pacific Ave|Tacoma|WA|98402|-122.439081|47.253565||91990401|91990401:|
110987505|Childrenof Hope Childcare And Learning Center|1937 S G St|Tacoma|WA|98405|-122.443285|47.24295||83510000|83510000:|
110987507|Mount Rainier Neurology|1708  Yakima Ave|Tacoma|WA|98405|-122.446867|47.245603||80110107|80110107:80310000:|
110987523|Jeannies Sewing Shop|15401  Union Ave|Lakewood|WA|98498|-122.55681|47.119626||72190104|72190104:|
110987532|Union Deli Mart|15206  Union Ave|Lakewood|WA|98498|-122.555476|47.121018||58120305|58120305:54110000:|
110987542|Good News Barber|10315  Bridgeport Way|Lakewood|WA|98499|-122.505909|47.163578||72410000|72410000:27110100:|
110987554|South Tacoma Antique Mall|8219 S Tacoma Way|Lakewood|WA|98499|-122.483002|47.182468||59320200|59320200:59610402:59479903:|
110987560|Sprint Store|5605  Lakewood Towne Center Blvd|Lakewood|WA|98499|-122.5101|47.1652|920|48120000|48120000:|
110987576|Cold Stone Creamery|10417  Gravelly Lake Dr|Lakewood|WA|98499|-122.520419|47.163024|1352|58120203|58120203:54519903:|
110987584|Chong's Fashions|11013  Pacific Hwy|Lakewood|WA|98499|-122.489857|47.15684||56210000|56210000:|
110987591|Flower Zone|9122 S Tacoma Way|Lakewood|WA|98499|-122.484621|47.174227||59920000|59920000:|
110987595|Hands of Care Learning Center|10506  Bridgeport Way|Lakewood|WA|98499|-122.506116|47.162091||83510000|83510000:|
110987596|Great Clips|5720  Lakewood Towne Center Blvd|Lakewood|WA|98499|-122.512837|47.164387|476|72310000|72310000:|
110987601|GameStop|5700  100th St|Lakewood|WA|98499|-122.511574|47.166109|1380|59990000|59990000:50920210:73590703:|
110987602|Work Wear|8012 S Tacoma Way|Lakewood|WA|98499|-122.485175|47.183889||53119901|53119901:|
110987607|Hot Rod Dog|1742  Pacific Ave|Tacoma|WA|98402|-122.43731|47.246678||58120000|58120000:|
110987609|Dr Donovan & Assoc|233  St Helens Ave|Tacoma|WA|98402|-122.444591|47.261156||80119904|80119904:80310000:|
110987614|Starbucks|2008  6th Ave|Tacoma|WA|98403|-122.463058|47.255853|210|54990204|54990204:54990201:58120304:58129902:|
110987662|Vanamex|6201  Pacific Ave|Tacoma|WA|98408|-122.433448|47.200564||87210101|87210101:|
110987687|Vn Nails|2631 N Pearl St|Tacoma|WA|98407|-122.515687|47.271481||72310104|72310104:|
110987699|Disciples Terrace|728 N Orchard St|Tacoma|WA|98406|-122.506413|47.257345||83610400|83610400:|
110987703|DR Henry Retailliau MD|2420 S Union Ave|Tacoma|WA|98405|-122.482837|47.237782||||
110987704|Integrity Property Management|8412  Canyon Rd|Puyallup|WA|98371|-122.358132|47.180173||65310200|65310200:|
110987709|Mandolin Cafe Llc|3923 S 12th St|Tacoma|WA|98405|-122.490024|47.25032||58129902|58129902:|
110987710|Pour At Four|3814 N 26th St|Tacoma|WA|98407|-122.488093|47.270797||58120000|58120000:|
110987712|Next Church|6928  22nd St|Tacoma|WA|98466|-122.529738|47.240232||86610123|86610123:|
110987714|Jamba Juice|3803 S Meridian |Puyallup|WA|98373|-122.29262|47.15554|1191|58120207|58120207:|
110987715|Battershell And Nichols|315  39th Ave|Puyallup|WA|98373|-122.296278|47.155341||87210101|87210101:|
110987718|Mountain Air Nw|2316  Inter Ave|Puyallup|WA|98372|-122.263424|47.188548||57220202|57220202:17110400:|
110987769|Greater Tacoma Convention & Trade Center|1500  Broadway |Tacoma|WA|98402|-122.439232|47.248073||73890301|73890301:|
110987799|Freighthouse Art Gallery|602 E 25th St|Tacoma|WA|98421|-122.425882|47.239794||79999901|79999901:84120100:82990100:|
110987819|Apple Physical Therapy-Business Office|11212  94th Ave|Puyallup|WA|98373|-122.305039|47.154329||80490200|80490200:|
110987841|Investor's Training Corporation|4111 S Meridian |Puyallup|WA|98373|-122.291739|47.152807||||
110987865|Sound Environmental|9107  76th Avenue Ct|Puyallup|WA|98371|-122.327263|47.174344||87489905|87489905:|
110987892|Just for You|101 S Meridian |Puyallup|WA|98371|-122.293364|47.191678||79910103|79910103:72990200:|
110988110|Southview Property Assoc LLC|13507  99th Ave|Puyallup|WA|98373|-122.296376|47.134153||||
110988200|AT&T|3077  20th St|Tacoma|WA|98424|-122.387808|47.239617|566|48130103|48130103:|
110988205|Fastenal|2519  Pacific Hwy|Tacoma|WA|98424|-122.395875|47.243748|467|50390000|50390000:50850401:|
110988293|Goodwill|6002  Mount Tacoma Dr|Lakewood|WA|98499|-122.516891|47.169361|475|59320000|59320000:53999905:|
110988302|Starbucks|10314 S Tacoma Way|Lakewood|WA|98499|-122.483818|47.163949|210|54990204|54990204:54990201:58120304:58129902:|
110988304|Moneytree|8904  South Tacoma Way|Lakewood|WA|98499|-122.483999|47.176507|2631|60999901|60999901:61639903:60999907:|
110988305|Kim and Kim CPA|9602  South Tacoma Way|Lakewood|WA|98499|-122.484122|47.169943||87210101|87210101:|
11100834|Rc's Auto Sales|9106  Canyon Rd|Puyallup|WA|98371|-122.357759|47.174758||55119901|55119901:55219902:|
1110517|St Paul's United Methodish Church|5601 S Puget Sound Ave|Tacoma|WA|98409|-122.482086|47.205738||86610100|86610100:|
11105415|RE/MAX|4801 S 19th St|Tacoma|WA|98405|-122.501551|47.243357|2132|65310100|65310100:65120100:|
11114879|Real Estate Exchange|7012  Pacific Ave|Tacoma|WA|98408|-122.434568|47.19352||65310100|65310100:65310400:65310204:|
11117396|Real Nails|5401  6th Ave|Tacoma|WA|98406|-122.508332|47.256093||72310104|72310104:|
11120789|Realty Connections|11221  Steele St|Tacoma|WA|98444|-122.467729|47.155492||65310100|65310100:65120100:|
11133226|United States Government|101  37th Ave|Puyallup|WA|98374|-122.292365|47.157574||91990401|91990401:|
11136206|Rok Straps USA LLC|12408  149th St|Puyallup|WA|98374|-122.263666|47.120501||47250000|47250000:|
11142574|Red Nails Salon|7313  40th St|Tacoma|WA|98466|-122.535036|47.220969||72310104|72310104:|
11144431|Red Robin|3901 S Steele St|Tacoma|WA|98409|-122.467912|47.221494|2332|58120101|58120101:|
11147998|Central Lutheran Church|409 N Tacoma Ave|Tacoma|WA|98403|-122.453072|47.266458||86610118|86610118:|
111539244|Swendsen Chiropractic Clinic|1011 E Main |Puyallup|WA|98372|-122.280847|47.192392||80410000|80410000:80490200:72990201:80110521:|
11157608|Redwood Signs|7114  87th St|Lakewood|WA|98499|-122.532419|47.178419||39930000|39930000:72910101:50999912:87219901:|
11160098|Reed Graphics Inc|964  99th St|Tacoma|WA|98445|-122.417322|47.166894||57340102|57340102:|
11170219|Refreshing Springs Church Of God In Christ|8802  Bridgeport Way|Lakewood|WA|98499|-122.518791|47.177468||86610112|86610112:|
11171884|Regal Cinemas South Hill 6|3500 S Meridian |Puyallup|WA|98373|-122.293369|47.164267|2999|78320000|78320000:|
111760977|Tacoma Motorfreight Service|1314 E 26th St|Tacoma|WA|98421|-122.41452|47.239543||42130000|42130000:|
111761164|Windermere Real Estate|10009  59th Ave|Lakewood|WA|98499|-122.51481|47.166292||65310100|65310100:|
111761654|Larson Automotive Group|7034 S Tacoma Way|Tacoma|WA|98409|-122.484093|47.192341||55110000|55110000:|
111761658|Greg's Japanese Auto|12704  Meridian |Puyallup|WA|98373|-122.293192|47.141056||75390000|75390000:75380000:|
11178011|Reggies Rebuildables Inc|3038  River Rd|Tacoma|WA|98443|-122.396771|47.23726||50150000|50150000:|
111852322|Puget Sound Esd|3601  20th St|Tacoma|WA|98424|-122.381874|47.239392||86999904|86999904:|
111857674|Clover Park Technical College|4500  Steilacoom Blvd|Lakewood|WA|98499|-122.497832|47.174873||82490000|82490000:82440000:82999900:82210100:82310000:82110300:|
111857693|Pierce Transit|3701  96th St|Lakewood|WA|98499|-122.486496|47.171184||41310000|41310000:41110100:59990900:|
111857751|Heritage Bank|5448 S Tacoma Way|Tacoma|WA|98409|-122.484155|47.206561||60290000|60290000:60220000:60210000:|
111857754|Pizza Time|6332  Pacific Ave|Tacoma|WA|98408|-122.434378|47.199428||58120600|58120600:|
111857756|Yakima Avenue Market Place|6414  Yakima Ave|Tacoma|WA|98408|-122.444431|47.198221||||
111857758|Point Defiance Village|6414 N Park Way|Tacoma|WA|98407|-122.523963|47.299287||72310000|72310000:72999901:83610400:|
111857763|Community Health Care|1102 S I St|Tacoma|WA|98405|-122.449201|47.251945||80110202|80110202:80310000:|
111857798|Nativity House Tacoma|2304  Jefferson Ave|Tacoma|WA|98402|-122.439458|47.240704||83610000|83610000:80510000:|
111857883|Holroyd Co Inc|7216  Lakewood Dr|Lakewood|WA|98499|-122.509992|47.191847||52519901|52519901:50320504:52110503:52110502:87219901:|
11188832|Rehma Janitorial Services|6240  Tacoma Mall Blvd|Tacoma|WA|98409|-122.46369|47.199509||73490104|73490104:|
111890436|High School/Middle School|5625  52nd St|Puyallup|WA|98371|-122.35487|47.211858||82110000|82110000:|
111914570|Windermere Real Estate|7525  28th St|Tacoma|WA|98466|-122.537656|47.234669||65310100|65310100:|
11191716|Reids Automotive Inc|3512  84th St|Lakewood|WA|98499|-122.483048|47.180643||||
11192102|Reier Construction|6124  Alameda Ave|University Place|WA|98467|-122.517949|47.201325||15210000|15210000:15420000:|
111972293|HairMasters|2315 N Pearl St|Tacoma|WA|98406|-122.51569|47.268843||72319902|72319902:72410000:|
111994170|The News Tribune|1950 S State St|Tacoma|WA|98405|-122.467058|47.240191||27110100|27110100:59949902:|
11200292|Reliable Drywall Inc|5044 N Visscher St|Tacoma|WA|98407|-122.517349|47.297921||17420101|17420101:|
112070851|Vern Fonk|7018  Tacoma Mall Blvd|Tacoma|WA|98409|-122.463288|47.193496||63319902|63319902:64110000:|
112205755|Architectural Services Inc|12181  C St|Tacoma|WA|98444|-122.436881|47.14566||87120000|87120000:|
112205762|Aaa West Valley Mortgage|12511  Meridian |Puyallup|WA|98373|-122.292507|47.142802||61620000|61620000:|
112205765|Pacific Rim Real Estate|315  39th Ave|Puyallup|WA|98373|-122.296278|47.155341||65310100|65310100:|
112205776|Digestive Health Specialists|2202 S Cedar St|Tacoma|WA|98405|-122.476918|47.238013||80110000|80110000:|
112205790|Trader Joe's|3800  Bridgeport Way|Tacoma|WA|98466|-122.537284|47.223088|1329|54119904|54119904:54999904:|
112205821|Longship Trade Goods Too|13118  Pacific Ave|Tacoma|WA|98444|-122.434799|47.138144||50949903|50949903:|
112205824|Divito & Associates Llc|10202  Pacific Ave|Tacoma|WA|98444|-122.434513|47.164135||87210000|87210000:|
112205845|Kims Trading|3030  96th St|Lakewood|WA|98499|-122.474805|47.170079||53119901|53119901:|
112205857|Posh Home|2502  6th Ave|Tacoma|WA|98406|-122.469521|47.255134||73890603|73890603:73890602:57120000:|
112205964|Camber Health Partners|302 S 9th St|Tacoma|WA|98402|-122.440941|47.254877||80119904|80119904:87219901:80999905:|
11220715|Rene's|202 E 60th St|Tacoma|WA|98404|-122.428394|47.202555||72310000|72310000:|
11230270|Tegco Fence|13018  Canyon Rd|Puyallup|WA|98373|-122.359244|47.13754||17999912|17999912:52119907:|
11230313|Rental Housing Association of Puget Sound|4102  110th St|Lakewood|WA|98499|-122.492246|47.157493||73590000|73590000:95319903:|
11230852|Rsc Equipment Rental|2302 E Q St|Tacoma|WA|98421|-122.409696|47.242346|1102|73590500|73590500:73530000:|
112319270|Multicare Westgate Urgent Care Clinic|5702 N 26th St|Tacoma|WA|98407|-122.513449|47.270643||80110200|80110200:|
11237453|Republic Parking NW Inc|923  Commerce St|Tacoma|WA|98402|-122.43957|47.255033||75210202|75210202:|
112446425|Canyon Auto Paint Supply Inc|12811  Canyon Rd|Puyallup|WA|98373|-122.356478|47.139197||50130121|50130121:75320202:50130200:|
112453944|Day Island Yacht Harbor|1855 E Day Island Blvd|Tacoma|WA|98466|-122.56139|47.243579||||
112454026|J & J Auto Body Repair Inc.|8322  South Tacoma Way|Lakewood|WA|98499|-122.484359|47.181811||75320401|75320401:75390000:75320202:|
112454064|Terry A Hickey DDS PS|6919  Lakewood Dr|University Place|WA|98467|-122.508468|47.195093||80210101|80210101:|
112454144|Rainier Connect|2516  Holgate St|Tacoma|WA|98402|-122.437815|47.237914||48130200|48130200:|
112454183|GameStop|4502 S Steele St|Tacoma|WA|98409|-122.468145|47.218244|1380|59990000|59990000:50920210:73590703:|
112454215|Raisl & Company PS|2323 N 30th St|Tacoma|WA|98403|-122.468223|47.27503||87210101|87210101:|
112454227|Graff & Sons Construction|3019 N 22nd St|Tacoma|WA|98406|-122.475924|47.268569||15210000|15210000:15420000:|
112454230|Point Defiance Park|5400 N Pearl St|Tacoma|WA|98407|-122.530886|47.309169||84129902|84129902:79991506:|
112454289|Pierce College Dental Hygiene Clinic|9401  Farwest Dr|Lakewood|WA|98498|-122.571475|47.172694||80219900|80219900:|
11249717|Resource Woodworks Inc|627 E 60th St|Tacoma|WA|98404|-122.423258|47.20283||17519900|17519900:52110100:50310000:|
11253863|Restoration Christian Ministries|3811  Yakima Ave|Tacoma|WA|98418|-122.442885|47.222624||86610123|86610123:|
11255964|AAA Resumes By Ed Bagley|4109  Bridgeport Way|Tacoma|WA|98466|-122.535042|47.219547||73380102|73380102:|
11262758|Revella Skatewear|1405 N Fife St|Tacoma|WA|98406|-122.470107|47.262663||56990300|56990300:|
11265571|Rex V Pegg Fabrics Inc|1802  Stewart St|Tacoma|WA|98421|-122.414758|47.253491||51310119|51310119:22110600:59999912:23999910:59490100:57149904:50139902:|
112731739|The Cleaning Company|2809  Rochester St|Tacoma|WA|98466|-122.531389|47.234246||||
112731759|Healing Places Counseling Center|1614 S Mildred St|Tacoma|WA|98465|-122.526543|47.247132||83220600|83220600:83220500:|
112731766|Naches Trail Elementary School|15305  Waller Rd|Tacoma|WA|98446|-122.38742|47.116702||82110000|82110000:|
112731768|Good Wok and Teriyaki|10909  Portland Ave|Tacoma|WA|98445|-122.405418|47.15518||58120103|58120103:|
112731773|Pacific Xray Technologies|908  125th Street Ct|Tacoma|WA|98445|-122.418501|47.142682||50470109|50470109:|
112731787|El Charrito Taqueria|10422  Pacific Ave|Tacoma|WA|98444|-122.434708|47.161743||58120112|58120112:|
112731792|Sho-Mays Hair Design|11116  Pacific Ave|Tacoma|WA|98444|-122.43445|47.156019||72310000|72310000:|
112731793|Bark Central LLC|205  118th St|Tacoma|WA|98444|-122.43476|47.14992||||
112731796|Celeberty Nails Salon|325  Garfield St|Tacoma|WA|98444|-122.436323|47.146271||72310104|72310104:|
112731805|Shons Espresso|8401 S Hosmer St|Tacoma|WA|98444|-122.462733|47.180613||58120304|58120304:|
112731808|River Auto Body|3906  River Rd|Tacoma|WA|98443|-122.376631|47.229221||75320401|75320401:75320202:|
112731813|The Woodbrook Com Church|14421  Woodbrook Dr|Lakewood|WA|98439|-122.527427|47.126377||86610112|86610112:|
112740534|Commencement Bay Corrugated|440 E 19th St|Tacoma|WA|98421|-122.427156|47.245495||59999930|59999930:|
112740543|Anzi Dental Center|3711  Pacific Ave|Tacoma|WA|98418|-122.433355|47.224287||80219900|80219900:|
112740545|New Heart Mcc|759 S 45th St|Tacoma|WA|98418|-122.442325|47.217011||86610123|86610123:|
112740554|City of Lakewood|6000  Main St|Lakewood|WA|98499|-122.515327|47.161231||91990404|91990404:92210405:|
112740560|City Government City of Lakewood|6000  Main St|Lakewood|WA|98499|-122.515327|47.161231||73890200|73890200:|
112740575|My Lady's Massage|10509  108th Ave|Lakewood|WA|98498|-122.580523|47.16228||72990201|72990201:80490200:|
112740577|Michael Morisson|3010  Bridgeport Way|Tacoma|WA|98466|-122.537405|47.232231||||
112740597|Oakbrook Childrens' Center|7902  83rd Ave|Lakewood|WA|98498|-122.548308|47.184811||83510000|83510000:|
112740611|Galloping Gerties|15417  Union Ave|Lakewood|WA|98498|-122.557432|47.119227||58120500|58120500:58130103:|
112740696|Thrift Recycling Management|9413  47th Ave|Lakewood|WA|98499|-122.4997|47.1703||59320302|59320302:49539905:59429900:|
112740698|Tosca Limited|4421  98th Street Ct|Lakewood|WA|98499|-122.4941|47.1681||||
112740705|Atomic Comics|4020 S Steele St|Tacoma|WA|98409|-122.468289|47.220537||59429905|59429905:|
112740710|T-Mobile|4502 S Steele St|Tacoma|WA|98409|-122.468145|47.218244|1347|48129901|48129901:59990600:|
112740712|Jamba Juice|4502 S Steele St|Tacoma|WA|98409|-122.468145|47.218244|1191|58120207|58120207:|
112740715|Executive Massage|4502 S Steele St|Tacoma|WA|98409|-122.468145|47.218244||72990201|72990201:|
112740727|Pierce County Cooperative Extension|3049 S 36th St|Tacoma|WA|98409|-122.475951|47.226484||91990402|91990402:82210102:|
112740731|Wmp Dickson Co|2901 S Tacoma Way|Tacoma|WA|98409|-122.473988|47.230039||17959902|17959902:|
112740744|Long's Custom Metal Craft|5620 S Proctor St|Tacoma|WA|98409|-122.489734|47.205365||17999932|17999932:|
112740748|ACE Cash Express|5013 S 56th St|Tacoma|WA|98409|-122.504|47.2066|425|60999901|60999901:61639903:|
112740754|Heritage Bank|8002  Pacific Ave|Tacoma|WA|98408|-122.434529|47.184343||60290000|60290000:60220000:60210000:|
112740764|Gardensphere|3310 N Proctor St|Tacoma|WA|98407|-122.489136|47.277969||52610300|52610300:|
112740775|WELLS FARGO BANK|2624 N Pearl St|Tacoma|WA|98407|-122.516458|47.272098|239|60290000|60290000:60220000:60210000:73890900:|
112740782|Sexual Assault Center Of Pierce County|633 N Mildred St|Tacoma|WA|98406|-122.52579|47.256773||||
112740787|Sooji's Day Spa|3914  6th Ave|Tacoma|WA|98406|-122.489875|47.255034||79910103|79910103:72310000:|
112740788|Aloha Oasis Hawaiian Store|3011  6th Ave|Tacoma|WA|98406|-122.475121|47.255403||59470104|59470104:|
112740789|Creatively Unique Gifts & Things|3009  6th Ave|Tacoma|WA|98406|-122.475099|47.255403||59470104|59470104:|
112740799|Kmart|5132  6th Ave|Tacoma|WA|98406|-122.508499|47.254597|121|53110000|53110000:57220202:56410000:|
112740800|Family Resource Home Care|227  Tacoma Ave|Tacoma|WA|98402|-122.445887|47.260888||80829900|80829900:83220103:|
112740810|Cloud For Congress|901 S I St|Tacoma|WA|98405|-122.44885|47.254159||||
112740813|Tacoma Housing Authority|2330 S G St|Tacoma|WA|98405|-122.443325|47.240379||95319902|95319902:|
112740844|Mountain Pest Controll|902 E 57th St|Tacoma|WA|98404|-122.41871|47.205155||73420203|73420203:|
112740852|O'connor P John Atty At Law|2115 N 30th St|Tacoma|WA|98403|-122.464583|47.275036||81119901|81119901:|
112740854|Davrey Financial Services Inc|2215 N 30th St|Tacoma|WA|98403|-122.465675|47.2749||73890900|73890900:87429908:|
112740904|Bottimore Leslie & Associates Pllc|201  St Helens Ave|Tacoma|WA|98402|-122.445312|47.262142||81110000|81110000:|
112740905|Commercial Capital and Mortgage Resources|444  St Helens Ave|Tacoma|WA|98402|-122.443872|47.259||61620000|61620000:|
112740907|Reeder Management Inc|1111  Fawcett Ave|Tacoma|WA|98402|-122.442397|47.2522||||
112740913|United Medical Services LLC|2513  Tacoma Ave|Tacoma|WA|98402|-122.440605|47.237873||80110202|80110202:|
112740922|The Health Connection|601 S Pine St|Tacoma|WA|98405|-122.473323|47.255018||80490200|80490200:72990201:|
112740938|Tacoma Library Main|3722 N 26th St|Tacoma|WA|98407|-122.486124|47.270936||82310000|82310000:|
112740941|Tacoma Public Utilities|3628 S 35th St|Tacoma|WA|98409|-122.485074|47.227288||49390000|49390000:91990404:83610403:|
112740988|St. Clare Hospital|11315  Bridgeport Way|Lakewood|WA|98499|-122.502059|47.154398||80620000|80620000:80110204:80110201:|
112741016|Extra Space Storage|7880 S Tacoma Way|Tacoma|WA|98409|-122.483876|47.186072|532|42260200|42260200:42259903:|
112741062|Providence Reformed Baptist Church|7002  40th St|Tacoma|WA|98466|-122.530497|47.220376||86610103|86610103:|
112741192|Gray Lumber Company|7126  Po Box |Tacoma|WA|98417|-122.378|47.1663||52110100|52110100:|
112741273|Northwest Nephrology|1708  Yakima Ave|Tacoma|WA|98405|-122.446867|47.245603||80110202|80110202:80110106:80119900:80310000:|
112741281|Nell Walter Company|5401  163rd St|Puyallup|WA|98375|-122.357342|47.107653||||
112741314|Multicare Health System Other Services|1220  Division Ave|Tacoma|WA|98403|-122.455832|47.259126||80110200|80110200:|
112741533|Bellarmine Preparatory School|2300 S Washington St|Tacoma|WA|98405|-122.486392|47.237336||82110204|82110204:|
112741553|Auditor Office|2401 S 35th St|Tacoma|WA|98409|-122.46771|47.228982||||
112741613|Arrow Worldwide|917  Pacific Ave|Tacoma|WA|98402|-122.438835|47.25519||47310200|47310200:|
112741708|County Government Juvenile Court Services|5501  6th Ave|Tacoma|WA|98406|-122.509539|47.255531||92119900|92119900:92220102:91990403:|
112741803|Open Arts Studio|109 N Tacoma Ave|Tacoma|WA|98403|-122.448644|47.264814||82999900|82999900:82990101:|
112743644|U-Haul at 12th & L|1212  Earnest S Brazill St|Tacoma|WA|98405|-122.453873|47.250472|227|75130000|75130000:55310106:50879907:|
112749429|Turn Key Real Estate|1310 N I St|Tacoma|WA|98403|-122.467315|47.267209||65310100|65310100:|
11275934|Rhine Equipment Co|1120  112th St|Tacoma|WA|98445|-122.41483|47.154993||87489905|87489905:|
11275959|Rhine Demolition LLC|1313  112th St|Tacoma|WA|98445|-122.411151|47.155592||17959900|17959900:59329901:|
1127620|Alphabet Pre School|7607  Lakewood Dr|Lakewood|WA|98499|-122.508195|47.188195||83519905|83519905:82119904:|
112768188|Tacoma Community College|6501 S 19th St|Tacoma|WA|98466|-122.521276|47.246478||82210100|82210100:82310000:|
112772325|Steilacoom Town Police Department|601  Main St|Steilacoom|WA|98388|-122.594281|47.170509||92210404|92210404:92240000:|
112772326|Steilacoom Historical School District 1|1100  Diggs St|Steilacoom|WA|98388|-122.599349|47.16561||82110300|82110300:|
112772327|Windemere Apartments|131  View Rd|Steilacoom|WA|98388|-122.578674|47.175735||65130000|65130000:72999901:|
112772369|Old Main St Antique Mall|16511  Pacific Ave|Spanaway|WA|98387|-122.434003|47.107328||59320200|59320200:|
112772379|Meridian Barber Shop|14706  Meridian |Puyallup|WA|98375|-122.293988|47.122566||72410000|72410000:|
112786843|Century 21|10202  149th St|Puyallup|WA|98374|-122.292704|47.120621|40|65310204|65310204:65310100:|
112786867|Von Vinzant Kennels|5925  107th St|Puyallup|WA|98373|-122.349396|47.159556||07520202|07520202:59991103:|
112786874|Massage Guy & Associates|3806  9th St|Puyallup|WA|98373|-122.304938|47.155758||72990201|72990201:80490200:|
112786876|Glass Works of South Sound|10107  122nd St|Puyallup|WA|98373|-122.29616|47.14579||75360000|75360000:|
112786898|Cascade Christian Schools|815  21st St|Puyallup|WA|98372|-122.266702|47.184732||82999913|82999913:82110000:|
112786902|Puerto Vallarta Restaurant|215  15th St|Puyallup|WA|98372|-122.273273|47.189983||58120500|58120500:|
112786903|MultiCare Regional Cancer Center|400  15th Ave|Puyallup|WA|98372|-122.288835|47.176944||94319901|94319901:80690201:|
112786906|Mcneilus Trucking & Mfg|14053  Pioneer Way|Puyallup|WA|98372|-122.241979|47.181693||42120000|42120000:|
112786912|Robbins Law Office|122 E Stewart Ave|Puyallup|WA|98372|-122.293395|47.192859||81110205|81110205:|
112786937|Lee Labrash Real Estate|436  2nd St|Puyallup|WA|98372|-122.292571|47.195253||65310100|65310100:|
112786940|Keystone Ridge Apts|14209  103rd Avenue Ct|Puyallup|WA|98374|-122.290887|47.12641||65130000|65130000:72999901:|
112786952|The Tux Shop|3827 S Meridian |Puyallup|WA|98373|-122.2927|47.1546||56999904|56999904:72990903:72990500:|
112786980|Ear Nose Throat & Plastic Surgery Associates|1609 S Meridian |Puyallup|WA|98371|-122.292985|47.176187||80110517|80110517:59990903:80310000:|
11282180|Rialto Apartments|311 S 9th St|Tacoma|WA|98402|-122.441483|47.255591||65130000|65130000:72999901:|
112888992|Smartcuts|17526  Meridian |Puyallup|WA|98375|-122.297552|47.09725||72310000|72310000:|
112972001|Physiotherapy Associates|11212  Sunrise Blvd|Puyallup|WA|98374|-122.2795|47.0973||80490200|80490200:|
112972013|Oasis Coffee Shop At Sunrise|11102  Sunrise Blvd|Puyallup|WA|98374|-122.281024|47.09697||58120304|58120304:58129902:54990204:54990201:|
11298360|Canyon Chiropractic|5216  72nd St|Tacoma|WA|98443|-122.358924|47.191283||80410101|80410101:|
11302068|Richlite Company|624 E 15th St|Tacoma|WA|98421|-122.423822|47.250239||56210000|56210000:52119904:|
1130427|Aspen Park Apts|5801  Orchard St|University Place|WA|98467|-122.506525|47.204172||65130000|65130000:72999901:|
11306328|Rich's Auto Sales|10030  Pacific Ave|Tacoma|WA|98444|-122.434994|47.16544||55119901|55119901:55219902:|
11306576|Rich's for the Home - Tacoma|6626  Tacoma Mall Blvd|Tacoma|WA|98409|-122.463458|47.19616||57120000|57120000:|
113071273|Walgreens|10302  Sunrise Blvd|Puyallup|WA|98374|-122.291458|47.097839|237|59129901|59129901:73840101:|
11307205|Rts Auto Service|10529  Lakeview Ave|Lakewood|WA|98499|-122.494262|47.164602||75390000|75390000:75490000:75380000:|
11308880|Rick Mack Enterprises|2008  112th St|Tacoma|WA|98445|-122.402769|47.154859||||
113167491|Hot Teriyaki|8013  Steilacoom Blvd|Lakewood|WA|98498|-122.543843|47.180055||58120109|58120109:|
113167493|Adam Car Sales|11215  Pacific Hwy|Lakewood|WA|98499|-122.493326|47.155345||55119900|55119900:55219902:|
113167501|Lynden Nails|10102  Bridgeport Way|Lakewood|WA|98499|-122.509047|47.165573||72310104|72310104:|
113167502|Kb Nails|10011  Bridgeport Way|Lakewood|WA|98499|-122.509674|47.166628||72310104|72310104:|
113167504|Vital Fitness Plus LLC|6002  Mount Tacoma Dr|Lakewood|WA|98499|-122.519309|47.169964||79910102|79910102:|
113167506|Tuscany Coffee Company|9528  Bridgeport Way|Lakewood|WA|98499|-122.517893|47.17054||51490901|51490901:54990204:54990201:|
113167512|Genesis Travel Network|9119  Gravelly Lake Dr|Lakewood|WA|98499|-122.516474|47.173018||47240000|47240000:|
113167516|City of Faith Christian Center|11011  Occident St|Lakewood|WA|98499|-122.503174|47.156822||86610121|86610121:55319901:|
113167517|Lakewood Garden III|10914  Addison St|Lakewood|WA|98499|-122.502628|47.157955||72999901|72999901:|
113167518|Motherhood Maternity|5605  Lakewood Towne Center Blvd|Lakewood|WA|98499|-122.5101|47.1652|818|56219901|56219901:|
113167523|Artistic Collision|3818  100th St|Lakewood|WA|98499|-122.488439|47.166898||75320404|75320404:75320401:75320202:|
113167542|Coit Cleaning|10025 S Tacoma Way|Lakewood|WA|98499|-122.483417|47.166179||72170000|72170000:|
113167543|American Techcorp|10715  Pacific Hwy|Lakewood|WA|98499|-122.485772|47.159667||57310000|57310000:|
113167549|Heritage Bank|10318  Gravelly Lake Dr|Lakewood|WA|98499|-122.520835|47.163945||60290000|60290000:60220000:60210000:|
113167550|Panda Express|10417  Gravelly Lake Dr|Lakewood|WA|98499|-122.520419|47.163024|851|58120103|58120103:|
113167551|Tienda Y Carniceria|10515  South Tacoma Way|Lakewood|WA|98499|-122.483608|47.161635||54210000|54210000:54110000:|
113167560|Center for Diagnostic Imaging|7308  Bridgeport Way|Lakewood|WA|98499|-122.519927|47.190644||80110000|80110000:80310000:|
113167568|A T Systems|3016  96th St|Lakewood|WA|98499|-122.474722|47.170079||73810101|73810101:|
1131875|Asphalt Patch Systems|8812  Canyon Rd|Puyallup|WA|98371|-122.359016|47.177048||16110200|16110200:17710301:29510000:52110500:|
113188207|Dock Street Marina|1817  Dock St|Tacoma|WA|98402|-122.434196|47.24557||44930000|44930000:|
113188213|Belay Architecture|708  Broadway |Tacoma|WA|98402|-122.441441|47.257316||87120000|87120000:|
113188214|Taylor-Thomason Insurance Brokers|3401 S 19th St|Tacoma|WA|98405|-122.480438|47.242903||64110000|64110000:63319902:|
113188259|Subway|7317  40th St|Tacoma|WA|98466|-122.535076|47.220969|214|58120313|58120313:|
113188265|The Pilates Body LLC|7326  27th St|Tacoma|WA|98466|-122.534755|47.234831||79910300|79910300:|
113188267|Elite Autobody & Frame|4301 S Union Ave|Tacoma|WA|98409|-122.482986|47.218443||75320401|75320401:75320202:75320404:|
113188280|GameStop|1625 E 72nd St|Tacoma|WA|98404|-122.4065|47.1918|1380|59990000|59990000:50920210:73590703:|
113188303|First In First Out Trucking|16515  14th Avenue Ct|Spanaway|WA|98387|-122.409533|47.106414||42120000|42120000:|
113188309|Anahua Mexican Restaurant|9002  Pacific Ave|Tacoma|WA|98444|-122.434754|47.175016||58120112|58120112:|
113188323|Oakland Alternative High School|3319 S Adams St|Tacoma|WA|98409|-122.485487|47.230503||82110000|82110000:91990401:|
113188328|Corinthian Colleges|2108  Pacific Ave|Tacoma|WA|98402|-122.436442|47.242868||||
113188330|Hwang DO Noodle Restaurant|3615  Steilacoom Blvd|Lakewood|WA|98499|-122.484802|47.176994||80119904|80119904:58120000:|
113188331|Salon Mairead And Day Spa|6008  Mount Tacoma Dr|Lakewood|WA|98499|-122.519316|47.169964||72310000|72310000:79910103:72990200:|
113188386|Silver Camera Work Richard Orth, Llc.|3318 N Proctor St|Tacoma|WA|98407|-122.489005|47.278128||73840000|73840000:59469901:82490000:82440000:|
113188392|T-Mobile|4009 S Meridian |Puyallup|WA|98373|-122.292391|47.153597|1347|48129901|48129901:59990600:|
113188424|Good Samaritan|11102  Sunrise Blvd|Puyallup|WA|98374|-122.281024|47.09697||80620000|80620000:|
113188437|Elite Martial Arts-Puyallup|12623  Meridian |Puyallup|WA|98373|-122.292213|47.141332||79991113|79991113:79991112:|
113355355|Kevin Schoenfelder MD|1515  Martin Luther King Jr Way|Tacoma|WA|98405|-122.450298|47.247059||80119904|80119904:80110202:|
113355361|Pearl Eyecare Center|2505 S 38th St|Tacoma|WA|98409|-122.469891|47.223113||59950000|59950000:80420100:|
113355362|Rebecca Benko MD|521  Martin Luther King Jr Way|Tacoma|WA|98405|-122.452545|47.257637||80119904|80119904:80310000:|
11340285|Riser's Heating Service|517  4th Ave|Puyallup|WA|98371|-122.300067|47.189164||17119900|17119900:76990302:|
11345253|Rite Aid|1850 S Mildred St|Tacoma|WA|98465|-122.526977|47.243167|191|59991300|59991300:59120000:73840101:|
11345266|Rite Aid|1912 N Pearl St|Tacoma|WA|98406|-122.516627|47.266509|191|59991300|59991300:59120000:73840101:|
11346126|Rite Aid|15801  Pacific Ave|Tacoma|WA|98444|-122.432857|47.113614|191|59991300|59991300:59120000:73840101:|
11346132|Rite Aid|3840  Bridgeport Way|Tacoma|WA|98466|-122.537887|47.222804|191|59991300|59991300:59120000:73840101:|
11348761|Rite Aid|12811  Meridian |Puyallup|WA|98373|-122.292105|47.139736|191|59991300|59991300:59120000:73840101:|
11353244|Riva Ridge Apartments|7221 S Wapato St|Tacoma|WA|98409|-122.468255|47.191658||65130000|65130000:72999901:|
11359781|River Road Landscape Supply|6620  River Rd|Puyallup|WA|98371|-122.338499|47.210218||52610205|52610205:42129905:17959902:|
11377350|Rj Automotive|1420 E Pioneer |Puyallup|WA|98372|-122.275047|47.188558||75390000|75390000:75490000:59419902:75380000:|
11386186|Roadhouse Tavern|15518  Meridian |Puyallup|WA|98375|-122.294538|47.115098||58120302|58120302:58130105:|
113935204|National Pipe & Piling Inc|2044  6th Ave|Tacoma|WA|98403|-122.464901|47.255182||59999916|59999916:52510000:|
113956246|Elizabeth G Sanford MD|6002  Westgate Blvd|Tacoma|WA|98406|-122.517127|47.265589||80119904|80119904:|
11399273|Robert B Taub Atty|4002  Tacoma Mall Blvd|Tacoma|WA|98409|-122.467216|47.220391||81119901|81119901:|
11400779|Roberts & Associates|8401 S Park Ave|Tacoma|WA|98444|-122.441605|47.180843||64110000|64110000:|
114034572|Sloan Bobrick PS|7610  40th St|Tacoma|WA|98466|-122.539337|47.2204||81110000|81110000:|
11415884|Terry Robinson Law Firm|16719  110th Ave|Puyallup|WA|98374|-122.282008|47.104152||81119901|81119901:|
11415958|Citygate Church|114  4th Ave|Puyallup|WA|98371|-122.294475|47.193586||86610123|86610123:|
11416987|Robi's Camera Center & Custom Framing|10015  Gravelly Lake Dr|Lakewood|WA|98499|-122.52009|47.165895||76991809|76991809:59469902:59991606:59469901:73840000:76991503:72990607:72219902:|
11417294|Robison Plumbing Service Inc|4009  Po Box |Mcchord Afb|WA|98438|-122.4875|47.1322||17110200|17110200:76990403:57220100:87480302:76990300:|
11418853|Joyce Attorney Robson At Law|201  St Helens Ave|Tacoma|WA|98402|-122.445312|47.262142||81119901|81119901:83220201:|
114262787|Universal Sodexho|1113  A St|Tacoma|WA|98402|-122.437302|47.2533||||
114277219|Thee Barber Shop|903  Pacific Ave|Tacoma|WA|98402|-122.438859|47.255297||72410000|72410000:|
114277232|Poulsbo RV|2727 E D St|Tacoma|WA|98421|-122.425421|47.237113||55610000|55610000:|
114277238|Medac|400 E Pioneer |Puyallup|WA|98372|-122.289286|47.190208||87219901|87219901:|
114277282|John Deere Landscapes|1817  112th St|Tacoma|WA|98445|-122.403806|47.155147||07810201|07810201:|
114277313|H&R Block|5700  100th St|Lakewood|WA|98499|-122.511585|47.166129|29|72910101|72910101:|
114277359|Douglas W Tufts Atty|2518 N Adams St|Tacoma|WA|98406|-122.487459|47.270393||81119901|81119901:|
1143808|Associated Ministries Housing And Shelter|1224 S I St|Tacoma|WA|98405|-122.448842|47.250366||86610000|86610000:|
11443474|Rodda Paint|4621 S Meridian |Puyallup|WA|98373|-122.2927|47.1513||52310201|52310201:57190400:50230500:|
114649716|Pioneer Builders Supply Co Inc|5401 S Burlington Way|Tacoma|WA|98409|-122.486165|47.206674||52119909|52119909:|
114650209|Quality Sewing & Vacuum|3717 S Meridian B |Puyallup|WA|98373|-122.3218|47.15||59450000|59450000:57220208:59999908:17999937:|
114650476|Pacific Northwest Eye Associates|2202 S Cedar St|Tacoma|WA|98405|-122.477099|47.240604||80110000|80110000:|
114651008|Coldwell Banker Realty|12615  Meridian |Puyallup|WA|98373|-122.291898|47.141847|452|65310100|65310100:|
114651073|Acupuncture Family Care|115  23rd Ave|Puyallup|WA|98372|-122.292582|47.170188||80499901|80499901:|
114651105|Vertetis Thomas|1201  Pacific Ave|Tacoma|WA|98402|-122.437538|47.252086||||
114651107|Folawn Colin|1201  Pacific Ave|Tacoma|WA|98402|-122.437538|47.252086||||
114651108|Caldwell Robert|1201  Pacific Ave|Tacoma|WA|98402|-122.437538|47.252086||||
114651127|Girolami Insurance|6314  19th St|Tacoma|WA|98466|-122.52189|47.242482||64110000|64110000:|
11465137|Joseph J Roller Attorney|1001 S 38th St|Tacoma|WA|98418|-122.446686|47.223286||||
114652896|A Storage Center|220  112th St|Tacoma|WA|98445|-122.427899|47.154104||42259900|42259900:42260200:42269901:|
114653096|Desert Sun|10321  Gravelly Lake Dr|Lakewood|WA|98499|-122.520431|47.163934||||
114653226|Rooter Man|17324  87th Avenue Ct|Puyallup|WA|98375|-122.314158|47.098412|1827|17110200|17110200:|
114653241|Creatura J Richard|1201  Pacific Ave|Tacoma|WA|98402|-122.437538|47.252086||||
114653250|Mathews Meridee|6108 S M St|Tacoma|WA|98408|-122.451099|47.201553||81110000|81110000:|
114653259|Orm|1423 E 29th St|Tacoma|WA|98404|-122.411674|47.2378||73610000|73610000:|
114653268|Pediatrix Medical|314  Martin Luther King Jr Way|Tacoma|WA|98405|-122.453943|47.259796||80110516|80110516:80430000:|
114653269|Laboratories Northwest|315  Martin Luther King Jr Way|Tacoma|WA|98405|-122.453035|47.259731||80710000|80710000:|
114653272|Rebecca Kimball Arnp|1901 S Union Ave|Tacoma|WA|98405|-122.479933|47.241547||80490502|80490502:|
114653288|Lighthouse Laundry|5738 N 26th St|Tacoma|WA|98407|-122.513757|47.270953||72190000|72190000:72159902:|
114653320|Mt Rainer FM Group|11212  17th Ave|Tacoma|WA|98445|-122.407652|47.154377||86610122|86610122:|
114653330|Jerry L Walker DDS|4303  Bridgeport Way|Tacoma|WA|98466|-122.536745|47.217819||80210101|80210101:|
114653332|Hill Cheryl|4904  93rd Ave|University Place|WA|98467|-122.561259|47.212293||87210101|87210101:|
114653334|Fred Meyer|6305  Bridgeport Way|University Place|WA|98467|-122.528996|47.200417|729|54210000|54210000:51460000:|
114653338|Anderson James R Cs|5322  60th Avenue Ct|University Place|WA|98467|-122.518254|47.20846||86610109|86610109:|
11470098|Roman Meal Co|2101  South Tacoma Way|Tacoma|WA|98409|-122.464644|47.232472||54119900|54119900:|
114727904|Bucky's Muffler-Parkland|13220  Pacific Ave|Tacoma|WA|98444|-122.435021|47.136684||75390402|75390402:75339902:|
114727906|Bargain World|15615  Pacific Ave|Tacoma|WA|98444|-122.433451|47.115338||59320000|59320000:|
114728|A Avenue Of Recovery|11006  Pacific Ave|Tacoma|WA|98444|-122.435968|47.157183||80930101|80930101:80690101:|
114731821|James S Griffith MD|2201 S 19th St|Tacoma|WA|98405|-122.466138|47.243118||80119904|80119904:80310000:|
114732052|University Place School District 83|3725  Grandview Dr|Tacoma|WA|98466|-122.557096|47.222177||82210100|82210100:|
11477517|New York Life Insurance Company|1102  Broadway |Tacoma|WA|98402|-122.440433|47.252881|159|64110000|64110000:|
11481235|Ron's Automotive|3224 E Portland Ave|Tacoma|WA|98404|-122.409731|47.233933||75390000|75390000:75490000:75380000:|
11485227|Roofers Local 153|3049 S 36th St|Tacoma|WA|98409|-122.475951|47.226484||86319900|86319900:|
11487583|Roopair Specialties|5205 S Washington St|Tacoma|WA|98409|-122.484853|47.209595||75390000|75390000:75380000:|
11488487|Roseville Property Mgt LLC|1104  Yakima Ave|Tacoma|WA|98405|-122.4478|47.252231||72999901|72999901:|
11496889|Will Attorney Hatch At Law|417 S G St|Tacoma|WA|98405|-122.446913|47.259163||81119901|81119901:|
114993066|Teriyaki & BBQ House|8012 S Tacoma Way|Lakewood|WA|98499|-122.485175|47.183889||58120801|58120801:58120109:|
115041073|Electronic Spedometer Service|7819  130th Street Ct|Puyallup|WA|98373|-122.324189|47.13823||75390300|75390300:|
115041106|United Auto Credit Corporation|4301 S Pine St|Tacoma|WA|98409|-122.470992|47.21776||61410100|61410100:|
115041145|Atkins Machine Llc|10526  Steele St|Lakewood|WA|98499|-122.468207|47.160935||75399904|75399904:|
11504351|Rosen Supply Co Inc|2920  Chandler St|Tacoma|WA|98409|-122.45624|47.233337||50740300|50740300:34320000:50740100:|
1150473|Assorted Tikes Inc|7503  Portland Ave|Tacoma|WA|98404|-122.407187|47.18892||82119904|82119904:|
11513963|Gary W Ross Atty|7403  Lakewood Dr|Lakewood|WA|98499|-122.508441|47.19002||81119901|81119901:|
11516026|Ross|5820  Lakewood Towne Center Blvd|Lakewood|WA|98499|-122.518739|47.164518|1973|56510000|56510000:53119901:|
11532435|Rowan Mj|5340 N Bristol St|Tacoma|WA|98407|-122.522116|47.300647||||
11535336|Pets R Precious|10418  Canyon Rd|Puyallup|WA|98373|-122.357539|47.160737||07529901|07529901:|
11539085|Royal Box Chinese Restaurant|11101  Pacific Hwy|Lakewood|WA|98499|-122.491768|47.156239||58120500|58120500:|
11554974|Rrich In Smoke|12607  Pacific Ave|Tacoma|WA|98444|-122.434318|47.14247||59930000|59930000:|
11556469|Rsm Mcgladrey Inc|1145  Broadway |Tacoma|WA|98402|-122.439382|47.25166||87210101|87210101:87119903:|
11568534|Roger L Rue Architect|3010  Mccarver St|Tacoma|WA|98403|-122.465489|47.274955||87120101|87120101:|
115738|A B C Children's Center|8545  27th St|Tacoma|WA|98466|-122.552688|47.235603||83510000|83510000:82119904:|
1157847|AT&T|2505 S 38th St|Tacoma|WA|98409|-122.469891|47.223113|566|48130100|48130100:|
11598953|Ryan Resources|923 E 26th St|Tacoma|WA|98421|-122.42087|47.239832||24110000|24110000:|
11601883|Budget Truck Rental|12413  Meridian |Puyallup|WA|98373|-122.290776|47.143594|1338|75139902|75139902:|
11608811|S & E Electric Inc|3904  Center St|Tacoma|WA|98409|-122.488728|47.231109||72999906|72999906:17319903:15220201:15210101:|
11613914|S & N Concrete|4336 E G St|Tacoma|WA|98404|-122.4224|47.217133||17710000|17710000:16110202:|
11619675|S & S Tire Service|13201  Pacific Ave|Tacoma|WA|98444|-122.434148|47.137092||55319901|55319901:75390402:75340000:75490000:|
11632783|S P Smoke Shop|8203  South Tacoma Way|Lakewood|WA|98499|-122.483576|47.182406||59939904|59939904:|
11634172|S S Landscaping|10215  Portland Ave|Tacoma|WA|98445|-122.40387|47.16394||07829903|07829903:07810201:|
11634274|S S Quickstop Grocery|603  112th St|Tacoma|WA|98444|-122.440031|47.155678||54110200|54110200:|
11637191|Saar's Marketplace|1015 N Pearl St|Tacoma|WA|98406|-122.514451|47.259192||54110000|54110000:|
11644833|Sacred Heart Catholic Church|4520  Mckinley Ave|Tacoma|WA|98404|-122.421089|47.216463||86610106|86610106:|
11652348|Safe Store Self Storage|3723  112th St|Lakewood|WA|98499|-122.48618|47.15661||42259903|42259903:42260200:|
11655279|Safelite Auto Glass|6426 S Tacoma Way|Tacoma|WA|98409|-122.483911|47.198907|195|75360101|75360101:55310100:52310100:|
11658816|U.S. Bank|3842  Bridgeport Way|Tacoma|WA|98466|-122.538819|47.2214|541|60210000|60210000:60220000:|
11676353|Saint Josephs|608 S 34th St|Tacoma|WA|98418|-122.439757|47.229279||||
11682837|Saint Paul Baptist Church|2225 S 19th St|Tacoma|WA|98405|-122.46679|47.243273||86610103|86610103:|
11688163|Sakura Japanese Steak House|3630 S Cedar St|Tacoma|WA|98409|-122.477085|47.224747||58120802|58120802:|
11690909|Pacific Counseling Services|1919  70th Ave|Tacoma|WA|98466|-122.529568|47.241753||83220600|83220600:83220500:|
11694994|Sales Corner Grocery|10406  Sales Rd|Lakewood|WA|98499|-122.467947|47.162963||54110000|54110000:|
11695530|Sales Road Storage|2317  102nd St|Tacoma|WA|98444|-122.46855|47.165397||42259900|42259900:42260200:75210201:42269901:|
11699475|Sally Beauty Supply|4423 S Meridian |Puyallup|WA|98373|-122.291615|47.148884|196|59991301|59991301:50870100:|
11701156|Sally Beauty Supply|3202 S 23rd St|Tacoma|WA|98405|-122.478213|47.237694|196|59991301|59991301:50870100:|
11705027|Salon Chez Nous|522  Forrest Park Dr|Tacoma|WA|98466|-122.510518|47.230297||72310000|72310000:|
11709181|Salon Verve|4040 S Tyler St|Tacoma|WA|98409|-122.494056|47.220401||72310000|72310000:|
11709390|Yes Nails|7801  Bridgeport Way|Lakewood|WA|98499|-122.517836|47.186119||72310104|72310104:|
11723021|Dany Best Nails|2913 S 38th St|Tacoma|WA|98409|-122.473957|47.222611||72310104|72310104:|
11752016|Sandco Properties|5046 S M St|Tacoma|WA|98408|-122.451481|47.210157||65319900|65319900:65310204:|
11758487|Sandpiper Gallery|2221 N 30th St|Tacoma|WA|98403|-122.465748|47.274899||84120100|84120100:|
11763498|Sandy's Budget Hair Care|3824  112th St|Tacoma|WA|98446|-122.377079|47.154399||72310000|72310000:|
11763603|Sandy's Concrete|3302 N Proctor St|Tacoma|WA|98407|-122.489388|47.277971||16110202|16110202:17710000:|
11781773|Kim's Wok & Teriyaki|2620  Bridgeport Way|Tacoma|WA|98466|-122.53725|47.235977||58120103|58120103:|
11781776|Sapporo Teriyaki|3850 S Meridian |Puyallup|WA|98373|-122.293441|47.155193||58120109|58120109:|
11786126|Sarco Supply|3902 S 56th St|Tacoma|WA|98409|-122.489547|47.205942||59999908|59999908:50870304:|
11788050|Sarku Japan|4502 S Steele St|Tacoma|WA|98409|-122.468145|47.218244||58120109|58120109:|
11802764|Savage Wholesale Building Materials|1001 E 25th St|Tacoma|WA|98421|-122.419881|47.241104||52110200|52110200:36990604:|
11813067|Saybr Contractors|3852 S 66th St|Tacoma|WA|98409|-122.488072|47.196847||15420000|15420000:15210000:|
11815894|Sbarro|3500 S Meridian |Puyallup|WA|98373|-122.296091|47.157829|524|58120108|58120108:|
11835901|Stephen N Schilt MD|7609  6th Ave|Tacoma|WA|98406|-122.539312|47.255096||80119904|80119904:80310000:|
11841545|Margaret Ann Schmidt MA|8404  27th St|Tacoma|WA|98466|-122.548985|47.234979||83220500|83220500:|
1186374|Atlas Trucking Inc|922 E 11th St|Tacoma|WA|98421|-122.420549|47.256249||42120000|42120000:|
11869968|Schuckmans|6330  111th St|Lakewood|WA|98499|-122.522723|47.15639||||
11870159|Schuck's Auto Supply|2901  6th Ave|Tacoma|WA|98406|-122.474052|47.255549|1346|55310103|55310103:55310104:59999905:50130100:76940202:75380100:|
11870235|O'Reilly Auto Parts|3026 S 38th St|Tacoma|WA|98409|-122.476076|47.222096|1346|55310103|55310103:55310104:59999905:|
11870239|O'Reilly Auto Parts|8404  Steilacoom Blvd|Lakewood|WA|98498|-122.549434|47.179573|1346|55310103|55310103:55310104:59999905:|
11870240|O'Reilly Auto Parts|10901  Pacific Hwy|Lakewood|WA|98499|-122.487618|47.158156|1346|55310103|55310103:55310104:59999905:|
11870255|O'Reilly Auto Parts|12310  Meridian |Puyallup|WA|98373|-122.293159|47.143893|1346|55310103|55310103:55310104:59999905:|
11875228|Schuur Brothers Construction|802  39th Ave|Puyallup|WA|98373|-122.302084|47.154488||15210000|15210000:15420000:|
11878645|R Stuart Schwartz DDS MS|1901 S Union Ave|Tacoma|WA|98405|-122.479933|47.241547||80210101|80210101:|
11883636|Sciola's Gutter Solutions|118  116th St|Tacoma|WA|98445|-122.429473|47.150825||52119908|52119908:17610101:|
11897334|Tacoma Scottish Rite Bodies|817 S Vassault St|Tacoma|WA|98465|-122.518838|47.252783||86410200|86410200:70410100:|
11897657|Scottrade|1301  A St|Tacoma|WA|98402|-122.43623|47.251427|2535|73891700|73891700:62110205:|
11916685|Seafair Sports Bar & Grill|3878  Center St|Tacoma|WA|98409|-122.487944|47.231115||58120310|58120310:58130101:58130107:|
11916730|Seafarer's International Union of North America-A and G District|3411 S Union Ave|Tacoma|WA|98409|-122.483278|47.228816||86319900|86319900:|
11939753|Sears|3500 S Meridian |Puyallup|WA|98373|-122.293369|47.164267|199|53110000|53110000:57220202:59490000:56329906:|
11940899|Stewart Datatech LTD|3008  36th St|Puyallup|WA|98374|-122.247306|47.162532||||
11944747|2nd Ave Styling Salon|206  2nd St|Puyallup|WA|98372|-122.2927|47.190826||72310000|72310000:|
1196438|Attitudes Salon|2605  6th Ave|Tacoma|WA|98406|-122.470468|47.255577||72310000|72310000:|
11978703|Gladys K Semakula DDS|9842  Gravelly Lake Dr|Lakewood|WA|98499|-122.52117|47.166906||80210101|80210101:|
11994923|Seoul Acupuncture & Herbal Center|8718 S Tacoma Way|Lakewood|WA|98499|-122.485179|47.178195||80499901|80499901:|
12018152|Seu Mi Sa Temple|227 E 72nd St|Tacoma|WA|98404|-122.427454|47.192359||86610000|86610000:|
12022619|Seventh-Day Adventist Church|1301 S Baltimore St|Tacoma|WA|98465|-122.507366|47.248572|201|86610127|86610127:|
12033431|Sgi Usa|8815  South Tacoma Way|Lakewood|WA|98499|-122.482863|47.176886||86610105|86610105:|
12033767|Sgs Distribution|505  Puyallup Ave|Tacoma|WA|98421|-122.427734|47.241138||||
12039801|Shea's Barber And Beauty|14902  Union Ave|Lakewood|WA|98498|-122.552281|47.122819||72310000|72310000:72410000:|
12040530|Shaffer F Mike|1201  Pacific Ave|Tacoma|WA|98402|-122.437538|47.252086||81110000|81110000:|
12043025|Shakbrah Java|2618  6th Ave|Tacoma|WA|98406|-122.470564|47.255303||58120000|58120000:|
12045447|Shaklee Distributor|606  Regents Blvd|Tacoma|WA|98466|-122.513222|47.237319|202|54990103|54990103:|
12049807|Shamrock Tavern|11118  Pacific Ave|Tacoma|WA|98444|-122.434721|47.155748||58130105|58130105:|
12058161|Shari's Restaurant & Pies|107  37th Ave|Puyallup|WA|98374|-122.292695|47.156779|2776|58120500|58120500:|
12060491|Sharon's Alterations|15914  94th Avenue Ct|Puyallup|WA|98375|-122.303888|47.111382||72190100|72190100:|
12062200|Gary R Shaw DDS|4103  Bridgeport Way|Tacoma|WA|98466|-122.536913|47.219357||80210101|80210101:|
12089095|Shell|2802 E Portland Ave|Tacoma|WA|98404|-122.41191|47.238122|906|55410000|55410000:|
12095627|Shepard & Associates|10828  Gravelly Lake Dr|Lakewood|WA|98499|-122.521146|47.158452||83220500|83220500:|
12104121|Sherman Homes|8111  49th Ave|Lakewood|WA|98499|-122.502334|47.182835||15219901|15219901:65310100:|
12109940|Sherwin-Williams|12314  Meridian |Puyallup|WA|98373|-122.293975|47.144312|203|52310201|52310201:52310301:|
12115157|Shilla Teriyaki|4423 S Meridian |Puyallup|WA|98373|-122.291615|47.148884||58120109|58120109:|
12115333|Shillito & Giske Ps|1919 N Pearl St|Tacoma|WA|98406|-122.515552|47.266882||81119902|81119902:|
12132874|Shop & Save|6802  19th St|Tacoma|WA|98466|-122.527588|47.242568||||
12134404|Shope Concrete|1618 E Main |Puyallup|WA|98372|-122.271625|47.189718||16110202|16110202:50320500:52110503:|
12140314|Short Stop|11025  Park Ave|Tacoma|WA|98444|-122.438986|47.156344||55419901|55419901:54110201:|
12152315|Public Storage|9815  32nd Avenue Ct|Lakewood|WA|98499|-122.476682|47.167701|183|42259903|42259903:50879907:|
12152347|Public Storage|1235 S Sprague Ave|Tacoma|WA|98405|-122.462389|47.248507|183|42259903|42259903:50879907:|
121604|A-Bell Excavating Inc|731902  Po Box |Puyallup|WA|98373|-122.3218|47.15||76990402|76990402:17949900:17110201:|
12162390|Siemreap|3602  Mckinley Ave|Tacoma|WA|98404|-122.420988|47.226223||54110000|54110000:51410000:|
12167188|Sierra Sun Apartments|12415  172nd St|Puyallup|WA|98374|-122.261928|47.098813||65310100|65310100:|
12198098|Law Office of Kirk 'Chip'mosley|901 S I St|Tacoma|WA|98405|-122.44885|47.254159||81119902|81119902:|
1220092|Austincina Architects Inc|12202  Pacific Ave|Tacoma|WA|98444|-122.4354|47.145207||87120101|87120101:89991001:|
12201360|Simmons Automotive|5601 S Proctor St|Tacoma|WA|98409|-122.488743|47.206043||75390000|75390000:55219902:75490000:75380000:|
12201556|Dean F Simmons DC|1720 S 72nd St|Tacoma|WA|98408|-122.459138|47.191424||80410101|80410101:|
12212446|Simpson Commencement Bay Mill|917 E 11th St|Tacoma|WA|98421|-122.427238|47.25512||24210000|24210000:50319904:52110100:|
12231946|Saint Francis Sisters|6602 S Alaska St|Tacoma|WA|98408|-122.460433|47.197653||||
12235571|Sivara A D Milling & Resawing|12009  Aqueduct Dr|Tacoma|WA|98445|-122.407239|47.148722||24210000|24210000:|
12237048|Six Olives|2708  6th Ave|Tacoma|WA|98406|-122.47162|47.255302||58120000|58120000:|
12238315|Sj Barrent Anc Company|221 S 28th St|Tacoma|WA|98402|-122.435909|47.236277||73890603|73890603:73890602:|
12247937|Skippers|3932 S Meridian |Puyallup|WA|98373|-122.293572|47.153599||58120000|58120000:|
12247962|Skipper's Seafood|4710  Pacific Ave|Tacoma|WA|98408|-122.434445|47.213917||58120700|58120700:54210100:|
12256376|Village At The Pointe|5702 N 33rd St|Tacoma|WA|98407|-122.51312|47.277259||65310202|65310202:|
12262216|Sled Shed|3924  River Rd|Tacoma|WA|98443|-122.375924|47.22876||76991303|76991303:55999904:|
12262648|Sleep Train Mattress Centers|101  37th Ave|Puyallup|WA|98374|-122.292762|47.156779||57120102|57120102:|
12262669|Sleep Train Mattress Centers|5700  100th St|Lakewood|WA|98499|-122.512781|47.16655||57120102|57120102:|
12272710|Small Business Tax Services Inc|3647 N Pearl St|Tacoma|WA|98407|-122.515335|47.281433||72910101|72910101:|
12274071|Small Tribes|3040  96th St|Lakewood|WA|98499|-122.475511|47.170082||91319901|91319901:|
12288057|Smith-Built Campers Canopies & RV Repair|14606  Pacific Ave|Tacoma|WA|98444|-122.43578|47.123962||75389901|75389901:76991300:55310107:|
12304521|Smith-Western Co|2223 S 80th St|Tacoma|WA|98409|-122.466521|47.185296||50990703|50990703:|
12310707|Smoke Center|2315 N Pearl St|Tacoma|WA|98406|-122.514416|47.269151||59930000|59930000:|
1231681|Auto Electric Distributing|2519  Pacific Hwy|Tacoma|WA|98424|-122.395875|47.243748||75390300|75390300:55310103:|
12343042|Eric I Sohn DDS|15  Oregon Ave|Tacoma|WA|98409|-122.465911|47.224133||80210101|80210101:|
12346954|Salon Express Tanning Salon.|6107  Mckinley Ave|Tacoma|WA|98404|-122.42056|47.201403||72990105|72990105:|
123501|A Better Theraputic Touch|6618 S L St|Tacoma|WA|98408|-122.450192|47.196125||80490200|80490200:72990201:|
12365043|Beltone Hearing Aid Center|4916  Center St|Tacoma|WA|98409|-122.503297|47.233698|26|58120109|58120109:59990903:|
12365180|Sonja Clothing for Women|2701 N 21st St|Tacoma|WA|98406|-122.471801|47.267715||56210000|56210000:|
12370674|Ld Nails & Body Wax|9602  Canyon Rd|Puyallup|WA|98373|-122.357482|47.169749||72310104|72310104:|
12382247|Sotto Voce Inc|211  171st St|Spanaway|WA|98387|-122.436078|47.101718||59470104|59470104:|
12383627|Souls Harbor Apostolic Church|10634  Yakima Ave|Tacoma|WA|98444|-122.442564|47.16028||86610101|86610101:|
12384328|Sound Built Homes|12815  Canyon Rd|Puyallup|WA|98373|-122.356598|47.13848||15219901|15219901:15420000:|
12385012|Sound Environmental Solutions Inc|731082  Po Box |Puyallup|WA|98373|-122.3218|47.15||87349900|87349900:87489905:|
12386024|Sound Options Inc|3518  6th Ave|Tacoma|WA|98406|-122.483329|47.255019||80829900|80829900:|
12386301|Sound Screening Services Inc|3012 S 47th St|Tacoma|WA|98409|-122.476078|47.2147||73610000|73610000:|
12387376|Soundcare Inc|1909  70th Ave|Tacoma|WA|98466|-122.529572|47.242088||80510000|80510000:80599904:|
12388198|Soundview 1|12809  Lincoln Ave|Lakewood|WA|98499|-122.508671|47.141196||||
12388282|Soundview Mortgage|4424  6th Ave|Tacoma|WA|98406|-122.497253|47.255071||61629900|61629900:|
12399788|South East Tacoma Community Center|1614  99th St|Tacoma|WA|98445|-122.407624|47.166565||83220601|83220601:83220103:|
12402491|Springhaven Village|9210 S Hosmer St|Tacoma|WA|98444|-122.464527|47.173351||72999901|72999901:|
12402865|South Hill Chiropractic|601  39th Ave|Puyallup|WA|98373|-122.300189|47.15519||80410101|80410101:80110202:|
12402867|South Hill Christian Church|12311  151st St|Puyallup|WA|98374|-122.265626|47.119659||86610121|86610121:86610123:|
12402870|South Hill Cleaners|17404  Meridian |Puyallup|WA|98375|-122.294235|47.09963||72160000|72160000:|
12402883|South Hill Family Counseling|12515  Meridian |Puyallup|WA|98373|-122.292298|47.142317||83220500|83220500:|
12402936|South Hill Pitstop Express|801 S Hill Park Dr|Puyallup|WA|98373|-122.303393|47.161118||58120000|58120000:|
12402937|South Hill Po-Boy & Bar-B-Q|15019  Meridian |Puyallup|WA|98375|-122.292501|47.119536||58120801|58120801:|
12402942|South Hill Rare Coins & Jewelry|15317  Meridian |Puyallup|WA|98375|-122.292539|47.116843||59990501|59990501:59450103:59440000:|
12402945|South Hill RV Sales|12414  Meridian |Puyallup|WA|98373|-122.294591|47.142837||55610000|55610000:76991300:|
12402970|South Hill Vision Clinic|12511  Meridian |Puyallup|WA|98373|-122.292507|47.142802||80420100|80420100:|
12404451|Puget Sound Christian School|1740 S 84th St|Tacoma|WA|98444|-122.459849|47.180474||82999913|82999913:83510000:82119904:|
1240885|Auto Tech Collision Center|2911 S Tacoma Way|Tacoma|WA|98409|-122.474661|47.229542||75320404|75320404:55310107:75320401:75320202:|
12410512|Tacoma South Side Seventh Day|230 S 94th St|Tacoma|WA|98444|-122.43582|47.171201||86610127|86610127:|
12411010|South Sound Dental Care|2115 S 56th St|Tacoma|WA|98409|-122.466572|47.206555||80210000|80210000:|
12411038|South Sound Painting|8818  24th Ave|Tacoma|WA|98445|-122.397684|47.17672||17219900|17219900:|
12411790|South Tacoma Auto Salon|5633 S Tacoma Way|Tacoma|WA|98409|-122.483523|47.205813||72310000|72310000:75420000:|
12411797|South Tacoma Glass Specialists|8915  Lakeview Ave|Lakewood|WA|98499|-122.490784|47.176309||55310100|55310100:|
12411802|Masonic Lodges|5405 S Puget Sound Ave|Tacoma|WA|98409|-122.482079|47.207824||86410200|86410200:70410100:|
12448774|Southridge|2700 S Meridian |Puyallup|WA|98373|-122.294532|47.165311||65310100|65310100:|
12453195|Southview Prop|9905  134th St|Puyallup|WA|98373|-122.296419|47.134933||65310100|65310100:65130000:|
12462803|Southwest Washington Electrical|3001 S 36th St|Tacoma|WA|98409|-122.475383|47.226896||86319900|86319900:|
12471545|The Old Spaghetti Factory|1735  Jefferson Ave|Tacoma|WA|98402|-122.438267|47.246306|1852|58120501|58120501:72990501:|
12472676|Spanaway Deli|16305  22nd Ave|Tacoma|WA|98445|-122.399259|47.108213||58120305|58120305:54119902:|
12472678|Spanaway Fitness Center Inc|13819  Pacific Ave|Tacoma|WA|98444|-122.433793|47.130791||79910102|79910102:50470109:|
12472680|Pacific Podiatry Group|15807  Pacific Ave|Tacoma|WA|98444|-122.434287|47.112821||80430101|80430101:|
12472685|Spin City Laundry|14914  Pacific Ave|Tacoma|WA|98444|-122.435081|47.121639||72190000|72190000:72160000:|
12472695|Spanaway United Methodist Church|135  163rd St|Spanaway|WA|98387|-122.433196|47.108783||86610120|86610120:|
12472699|Spanawayvillage Shopping Ctr|8012  56th Street Ct|University Place|WA|98467|-122.544734|47.205592||65120205|65120205:|
12473754|Spanish Hills|6409 S 12th St|Tacoma|WA|98465|-122.52411|47.250881||72999901|72999901:|
12475310|Spare Space|3030  68th Ave|Tacoma|WA|98466|-122.527467|47.232294||42259903|42259903:42260200:|
12476638|Sparkleen|506  3rd St|Puyallup|WA|98372|-122.291617|47.187852||72160000|72160000:|
12480170|Spartan Services|760  107th St|Tacoma|WA|98444|-122.442812|47.159788||17110200|17110200:76990403:|
12489787|Specialized Landscaping Inc|10524  A St|Tacoma|WA|98444|-122.432231|47.161056||07829903|07829903:07810201:|
12493348|Specialty Products Inc|2410  104th Street Ct|Lakewood|WA|98499|-122.4688|47.1625||50840000|50840000:|
12494011|Specialty Surveillance Agency|2910 N 24th St|Tacoma|WA|98406|-122.473759|47.268897||||
12494445|Specialty Wood Manufacturing|7717  Portland Ave|Tacoma|WA|98404|-122.406365|47.18677||57129902|57129902:57120201:|
12497966|Spectrum Enteprises|11910  Meridian |Puyallup|WA|98373|-122.293168|47.148305||59999908|59999908:|
12501402|Speed E Mart Iii|2519 N Stevens St|Tacoma|WA|98406|-122.49587|47.270771||54110000|54110000:|
12501599|Speedline Motorsports|8722 S Tacoma Way|Lakewood|WA|98499|-122.48518|47.178236||55610000|55610000:55310105:55110000:|
12503681|Speedway Auto Sales|10605  Canyon Rd|Puyallup|WA|98373|-122.356386|47.159628||55119901|55119901:55219902:|
1250886|15th Street Automotive|116  10th St|Puyallup|WA|98372|-122.281809|47.191285||75390000|75390000:75490101:75380000:|
12510379|Spencer's|3500 S Meridian |Puyallup|WA|98373|-122.296091|47.157829|918|59470104|59470104:|
12514171|Sphinx Janitorial & Supply Co|625  St Helens Ave|Tacoma|WA|98402|-122.442897|47.258335||73490104|73490104:|
12528184|Sporar T R Cpa/Cfp|5900  100th St|Lakewood|WA|98499|-122.516133|47.166471||87210101|87210101:72910000:|
12537912|Sprague Avenue Carwash|1211 S Sprague Ave|Tacoma|WA|98405|-122.462505|47.249541||75429900|75429900:|
12548469|The Spring Lake Cafe|616  Regents Blvd|Tacoma|WA|98466|-122.513307|47.23735||58129902|58129902:|
12549693|Springtree Apts|4810  127th Street Ct|Lakewood|WA|98499|-122.50061|47.141552||65130000|65130000:72999901:|
12554880|Spud's Pizza Parlor|7025  Pacific Ave|Tacoma|WA|98408|-122.433559|47.193099||58120600|58120600:72990501:|
12561176|Srw|4527 S Orchard St|Tacoma|WA|98466|-122.502985|47.215894||17410102|17410102:|
12569845|St Charles Borromeo|7112 S 12th St|Tacoma|WA|98465|-122.532959|47.24854||86610106|86610106:|
1257139|AutoZone|2620  Bridgeport Way|Tacoma|WA|98466|-122.53725|47.235977|20|55310103|55310103:|
12581281|St Johns Baptist Church|2001 S J St|Tacoma|WA|98405|-122.447611|47.242356||86610103|86610103:|
12585741|St Johns Lutheran Church Elca|8602  Bridgeport Way|Lakewood|WA|98499|-122.518651|47.179374||86610118|86610118:|
12591853|St Leo's Church|710 S 13th St|Tacoma|WA|98405|-122.445716|47.250384||86610106|86610106:|
12599607|St Mary's Catholic Church|757  138th St|Tacoma|WA|98444|-122.443189|47.131727||86610106|86610106:|
12604877|Greek Orthodox Church St Nicholas|1523  Yakima Ave|Tacoma|WA|98405|-122.445871|47.247871||86610116|86610116:|
12612240|St Peter's Church|2910 N Starr St|Tacoma|WA|98403|-122.463984|47.274032||86610115|86610115:|
12614565|St Rita's Church|1403 S Ainsworth Ave|Tacoma|WA|98405|-122.457944|47.24802||86610106|86610106:|
12616790|St Therese Adult Family Home|1407  Brooke Ct|Steilacoom|WA|98388|-122.585461|47.162161||83619900|83619900:|
12622723|Stadium Dental Health|2 N Tacoma Ave|Tacoma|WA|98403|-122.447304|47.264073||80210000|80210000:|
12623859|Staff PRO|2727 E D St|Tacoma|WA|98421|-122.425421|47.237113||73820000|73820000:73810100:|
12634403|Standard Auto Electric|315 S Tacoma Way|Tacoma|WA|98402|-122.436989|47.236529||75390302|75390302:|
12654485|Star Market|1433 S 56th St|Tacoma|WA|98408|-122.454364|47.206715|2736|54110200|54110200:|
12655010|Star Moving Systems|3625 S Warner St|Tacoma|WA|98409|-122.479803|47.224576||42120400|42120400:42260200:|
12660612|Starbucks|1723 S 72nd St|Tacoma|WA|98408|-122.459333|47.192179|210|54990204|54990204:54990201:58120304:58129902:|
12660631|Starbucks Coffee|601 S Pine St|Tacoma|WA|98405|-122.473323|47.255018|210|58120304|58120304:54990204:54990201:|
12660638|Starbucks|3514 S 56th St|Tacoma|WA|98409|-122.482754|47.206069|210|54990204|54990204:54990201:58120304:58129902:|
12660660|Starbucks Coffee|15805  Pacific Ave|Tacoma|WA|98444|-122.432951|47.112902|210|58120304|58120304:54990204:54990201:54110000:|
12661342|Starbucks Coffee|3830  Bridgeport Way|Tacoma|WA|98466|-122.537286|47.222837|210|58120304|58120304:54990204:54990201:|
12661350|Starbucks|1101  Pacific Ave|Tacoma|WA|98402|-122.438392|47.253254|210|54990204|54990204:54990201:58120304:58129902:|
12661355|Starbucks|4502 S Steele St|Tacoma|WA|98409|-122.468082|47.218244|210|54990204|54990204:54990201:58120304:58129902:|
12661364|Starbucks|2112 N 30th St|Tacoma|WA|98403|-122.464027|47.274632|210|54990204|54990204:54990201:58120304:58129902:|
12661393|Starbucks|2505 S 38th St|Tacoma|WA|98409|-122.470087|47.222625|210|54990204|54990204:54990201:58120304:58129902:|
12664993|Starguard|2002  99th St|Tacoma|WA|98445|-122.401993|47.16662||56990102|56990102:|
12671284|Starshader|10227  139th Street Ct|Puyallup|WA|98374|-122.291328|47.129982||50850000|50850000:17999920:|
12718997|State of Washington West|6820  19th St|Tacoma|WA|98466|-122.52776|47.242568||91990402|91990402:|
12719126|State Government South|8217  Steilacoom Blvd|Lakewood|WA|98498|-122.546772|47.18066||91990402|91990402:|
12721195|Washington State|2606 W Pioneer |Puyallup|WA|98371|-122.330679|47.19013||86410300|86410300:91990402:|
12730051|Brown and Seelye Attorneys At Law|744  Fawcett Ave|Tacoma|WA|98402|-122.443997|47.255658||81119901|81119901:81110203:81119902:|
12736021|Steamer's Seafood Cafe|8802  6th Ave|Tacoma|WA|98465|-122.554016|47.246379||58129902|58129902:|
12740074|Steele Manor|621 S Steele St|Tacoma|WA|98405|-122.467708|47.254595||72999901|72999901:|
12740428|Steeler Inc|540 E 15th St|Tacoma|WA|98421|-122.425636|47.249523||52110300|52110300:52119900:|
12743626|Steilacoom Pub & Grill|1202  Rainier St|Steilacoom|WA|98388|-122.602322|47.169487||58120000|58120000:|
12743631|Steilacoom Historical Museum|1801  Rainier St|Steilacoom|WA|98388|-122.596723|47.172787||84129902|84129902:|
12743633|Steilacoom High School|54  Sentinel Dr|Steilacoom|WA|98388|-122.574521|47.179771||82110300|82110300:|
12743636|Steilacoomhistorical School District|511  Chambers St|Steilacoom|WA|98388|-122.597918|47.169372||82110300|82110300:|
12743637|Saltars Point Elementary School|908  3rd St|Steilacoom|WA|98388|-122.609521|47.163218||82110303|82110303:|
12743647|Steilacoom Tribal Cultural Center and Museum|1515  Lafayette St|Steilacoom|WA|98388|-122.599965|47.172369||84129902|84129902:91319901:|
12748161|Stellar Mart|7019  Steilacoom Blvd|Lakewood|WA|98499|-122.531639|47.177529||54110200|54110200:|
12764177|Sterlingjewelers Inc Repair Shop|2501 S 38th St|Tacoma|WA|98409|-122.470039|47.222625||59440000|59440000:|
12765002|Associated Insurance Brokers-Jay Stern|621  Pacific Ave|Tacoma|WA|98402|-122.439245|47.257585||64110000|64110000:|
12767909|Texaco|4002  Bridgeport Way|Tacoma|WA|98466|-122.537541|47.220568|221|55410000|55410000:|
12768915|Steven Christian Hair Salon|2312  A St|Tacoma|WA|98402|-122.434643|47.240657||72319901|72319901:|
12781996|Stewart Title|4002  Tacoma Mall Blvd|Tacoma|WA|98409|-122.467216|47.220391||63610000|63610000:65419901:|
12804769|Stonegate Apartments|7119  62nd Ave|Lakewood|WA|98499|-122.520307|47.193119||65130000|65130000:72999901:|
12806202|Stoneridge Apartments|10801  108th Ave|Lakewood|WA|98498|-122.580802|47.159792||65130000|65130000:72999901:|
12806408|Stoner William S|1832  11th Ave|Puyallup|WA|98371|-122.320135|47.200445||||
12811038|Stop In Grocery|3908  6th Ave|Tacoma|WA|98406|-122.489276|47.255158||54110000|54110000:|
12826209|The Strand Hair Salon|502  2nd Ave|Puyallup|WA|98372|-122.287431|47.192398||72310000|72310000:|
12855492|Studio 2 Hair Design|13920  Waller Rd|Tacoma|WA|98446|-122.394912|47.129692||72310000|72310000:|
12866115|Style Makers Hair Design|10828  Gravelly Lake Dr|Lakewood|WA|98499|-122.521146|47.158452||72310000|72310000:|
1286660|Ayothaya Thai Quisine|4102 S Meridian |Puyallup|WA|98373|-122.294865|47.153173||58120000|58120000:|
12868939|Stylish Hair|6402  Yakima Ave|Tacoma|WA|98408|-122.443596|47.198916||72319901|72319901:|
12869388|Steve R Styskal DDS|8404  83rd Ave|Lakewood|WA|98498|-122.547983|47.180769||80210101|80210101:|
12875640|Suburban Realty Inc|11302  Pacific Ave|Tacoma|WA|98444|-122.434651|47.153922||65310100|65310100:65310400:65310204:|
12876579|Subway|8638  Pacific Ave|Tacoma|WA|98444|-122.434749|47.177836|214|58120313|58120313:58129903:|
12876906|Subway|4916  Center St|Tacoma|WA|98409|-122.503297|47.233698|214|58120313|58120313:|
12879580|Subway|1407 E 72nd St|Tacoma|WA|98404|-122.409166|47.192873|214|58120313|58120313:54119902:|
12881599|Subway|11012  Canyon Rd|Puyallup|WA|98373|-122.358672|47.155763|214|58120313|58120313:|
12881627|Subway|13414  Meridian |Puyallup|WA|98373|-122.293835|47.134095|214|58120313|58120313:|
12882685|Subway|7701  Steilacoom Blvd|Lakewood|WA|98498|-122.539979|47.179589|214|58120313|58120313:|
12885497|Subway|124 N I St|Tacoma|WA|98403|-122.451685|47.26202|214|58120313|58120313:|
12885521|Subway|1112 S 11th St|Tacoma|WA|98405|-122.452013|47.251832|214|58120313|58120313:|
12885713|Subway|11120  Steele St|Lakewood|WA|98499|-122.46809|47.158924|214|58120313|58120313:|
12891333|Subway|8415 S Hosmer St|Tacoma|WA|98444|-122.463001|47.180909|214|58120313|58120313:|
12891568|Subway|16116  Meridian |Puyallup|WA|98375|-122.293599|47.109822|214|58120313|58120313:|
12891919|Subway|11457  Pacific Ave|Tacoma|WA|98444|-122.433767|47.152186|214|58120313|58120313:54119902:|
12891987|Subway|15109  Union Ave|Lakewood|WA|98498|-122.554125|47.12119|214|58120313|58120313:|
12896998|Sue's Hair Design|10601  Gravelly Lake Dr|Lakewood|WA|98499|-122.520185|47.160521||72310000|72310000:|
12914619|Summit Christian Center|2824  112th St|Tacoma|WA|98445|-122.389752|47.154295||86610121|86610121:|
12918740|Summit RV Repair|3119  84th St|Tacoma|WA|98446|-122.387124|47.181361||75389901|75389901:55619902:76991300:75399906:42269901:|
12919589|Summit United Methodist Church|5316  104th St|Tacoma|WA|98446|-122.357797|47.161079||86610120|86610120:|
12919668|Summit View Accounting Inc|11112  66th Ave|Puyallup|WA|98373|-122.341657|47.155038||87219901|87219901:72910101:|
12927143|Sun Luggage|11013  Pacific Hwy|Lakewood|WA|98499|-122.489857|47.15684||59489902|59489902:|
12927909|Sun Nails|6332  Pacific Ave|Tacoma|WA|98408|-122.434378|47.199428||72310104|72310104:|
12938764|Sundance Apartments|7427  Lakewood Dr|Lakewood|WA|98499|-122.508561|47.190188||65130000|65130000:72999901:|
12949556|Barber Shop Sunny's|10227  Bridgeport Way|Lakewood|WA|98499|-122.506667|47.164467||72410000|72410000:|
12952630|Sunrise Apartments|1429 E 46th St|Tacoma|WA|98404|-122.408575|47.215629||65130000|65130000:72999901:|
12953535|Sunrise Children's Center|12214  Shaw Rd|Puyallup|WA|98374|-122.258922|47.144976||83510000|83510000:|
12958438|Sun's Barber|6101  100th St|Lakewood|WA|98499|-122.518542|47.166997||72410000|72410000:|
12962794|Sunset Pacific General Constractor|9500  Front St|Lakewood|WA|98499|-122.473077|47.171029||15219901|15219901:65310204:|
12963374|Sunset Ridge Apartments|5918  Hannah Pierce Rd|University Place|WA|98467|-122.510612|47.20462||65130000|65130000:72999901:|
12964203|Sunset View Apartments|7713  44th St|Tacoma|WA|98466|-122.54016|47.217309||65130000|65130000:72999901:|
12964352|University Crossings Apartments|4510  76th Ave|Tacoma|WA|98466|-122.538266|47.21558||65310100|65310100:|
12973223|Sunworks|2113  26th Ave|Puyallup|WA|98374|-122.266122|47.166286||17110400|17110400:|
12988541|Coastwide Laboratories|2705  South Tacoma Way|Tacoma|WA|98409|-122.472548|47.230821||||
12997308|Superior Saw & Supply Inc|2712  Pacific Ave|Tacoma|WA|98402|-122.435289|47.236589||76992301|76992301:|
12998692|Superior Tan|8409  87th Ave|Lakewood|WA|98498|-122.552891|47.180279||72990105|72990105:|
13000163|Superk Barber Shop|14921  Union Ave|Lakewood|WA|98498|-122.552486|47.12218||72410000|72410000:|
13016991|Sushitama|3919  6th Ave|Tacoma|WA|98406|-122.490025|47.255545||58120000|58120000:|
13020339|Smiles By Sutherland|210  4th Ave|Puyallup|WA|98371|-122.295431|47.188458||80210105|80210105:80119904:|
1302381|B&D International|1711  Center St|Tacoma|WA|98409|-122.458741|47.234101||50319909|50319909:24350000:|
13029752|Swanlund Randal DDS|7120  40th St|Tacoma|WA|98466|-122.532559|47.220519||80210101|80210101:|
13030066|Swan's Candles|8933  Gravelly Lake Dr|Lakewood|WA|98499|-122.512111|47.174834||59991603|59991603:|
13030633|Swanson Donald R|10908  Gravelly Lake Dr|Lakewood|WA|98499|-122.520929|47.157577||80210000|80210000:|
13036585|David Sweet Inc|2005  70th Ave|Tacoma|WA|98466|-122.529215|47.241407||65310100|65310100:65120100:|
13051720|Syd's Shoe Repair|4605  Pacific Ave|Tacoma|WA|98408|-122.433532|47.214901||72510104|72510104:|
13053614|Sylvan Learning|2310  Mildred St|Tacoma|WA|98466|-122.527782|47.238528|217|82990200|82990200:|
13078593|T C Deli Mart|6701 S 12th St|Tacoma|WA|98465|-122.526804|47.250093||58120305|58120305:54110200:|
13084904|Tj's Pub|16701  Pacific Ave|Spanaway|WA|98387|-122.43442|47.104826||58130101|58130101:58130105:|
13087358|T M G Services Inc|3216 E Portland Ave|Tacoma|WA|98404|-122.409771|47.234109||50849902|50849902:|
13090428|T Nails|3832  Bridgeport Way|Tacoma|WA|98466|-122.537286|47.22282||72310104|72310104:|
13102522|Taco Bell|11304  Canyon Rd|Puyallup|WA|98373|-122.357408|47.153327|218|58120307|58120307:|
13103064|Taco Bell|2902  6th Ave|Tacoma|WA|98406|-122.47397|47.255009|218|58120307|58120307:|
13104592|Taco Bell|10611  Pacific Ave|Tacoma|WA|98444|-122.433672|47.160723|218|58120307|58120307:|
13104618|Taco Bell|15611  Pacific Ave|Tacoma|WA|98444|-122.434308|47.115456|218|58120307|58120307:|
13104620|Taco Bell|6729 S 19th St|Tacoma|WA|98466|-122.528463|47.243105|218|58120307|58120307:|
13104648|Taco Bell|2615 N Pearl St|Tacoma|WA|98407|-122.515268|47.27199|218|58120307|58120307:|
13104659|Taco Bell|2945 S 38th St|Tacoma|WA|98409|-122.474274|47.222611|218|58120307|58120307:|
13106898|Taco Del Mar|1908  Pacific Ave|Tacoma|WA|98402|-122.437103|47.244678|1554|58120112|58120112:|
1310754|B and M Auto Sales|9313 S Tacoma Way|Lakewood|WA|98499|-122.482697|47.172694||55119901|55119901:|
13108319|Tacotime|1115 E Main |Puyallup|WA|98372|-122.278745|47.192157|934|58120307|58120307:|
13108422|Taco Time|10507 S Tacoma Way|Lakewood|WA|98499|-122.4838|47.162078|934|58120307|58120307:|
13108611|Tacoma Art Museum|1701  Pacific Ave|Tacoma|WA|98402|-122.436265|47.247248||84129902|84129902:|
13108621|Tacoma Biomedical Inc|3623 S 12th St|Tacoma|WA|98405|-122.484884|47.250258||76990700|76990700:|
13108643|Tacoma City Association Of Colored Women Club|2316  Yakima Ave|Tacoma|WA|98405|-122.444856|47.240287||83220610|83220610:|
13108703|Tacoma Diagnostic Ultrasound|223 N K St|Tacoma|WA|98403|-122.454047|47.261087||||
13108707|Franciscan Medical Group|11311  Bridgeport Way|Lakewood|WA|98499|-122.504248|47.153702||80110202|80110202:80119900:80310000:|
13108712|Ez Mart|3402  Pacific Ave|Tacoma|WA|98418|-122.434482|47.229841||54110200|54110200:|
13108726|Tacoma Electric Supply Inc|1311 S Tacoma Way|Tacoma|WA|98409|-122.451768|47.231681||50630205|50630205:36990000:50630206:|
13108727|Elks Lodge|2114  Tacoma Ave|Tacoma|WA|98402|-122.442413|47.241801|697|70410100|70410100:86410200:|
13108729|Tacoma Equine Hospital|3112  156th St|Tacoma|WA|98446|-122.387374|47.114472||07429901|07429901:07419901:|
13108747|Tacoma First Baptist Church|1328 S 84th St|Tacoma|WA|98444|-122.451627|47.179488||86610103|86610103:|
13108769|Tacoma Housing Authority|1728 E 44th St|Tacoma|WA|98404|-122.404337|47.216636||95319902|95319902:|
13108771|Tacoma Housing Authority|902 S L St|Tacoma|WA|98405|-122.453783|47.25374||95319902|95319902:72999901:95310404:95319903:|
13108784|Tacoma Central Church|8001  Pine St|Lakewood|WA|98499|-122.473056|47.183848||86610125|86610125:|
13108788|Tacoma Korean Baptist Church|8826  John Dower Rd|Lakewood|WA|98499|-122.52414|47.177054||86610103|86610103:|
13108793|Tacoma Land Company|3020 S Union Ave|Tacoma|WA|98409|-122.483998|47.2324||65529900|65529900:65310100:|
13108795|Tacoma Lawn Tennis Club|502 N Borough Rd|Tacoma|WA|98403|-122.457211|47.267624||79979900|79979900:|
13108842|Tacoma Narrows Federal Credit Union|5319 N 51st St|Tacoma|WA|98407|-122.509643|47.298914||60610101|60610101:|
13108853|Tacoma Paperboard Caraustar Mill Group|808 E 26th St|Tacoma|WA|98421|-122.422191|47.239097||||
13108859|Tacoma Philharmonic Inc|901  Broadway |Tacoma|WA|98402|-122.440534|47.255173||79290109|79290109:|
13108865|Tacoma Pierce County Association Of Realtors|2550  Yakima Ave|Tacoma|WA|98405|-122.444166|47.23744||65310100|65310100:|
13108881|Tacoma City Police Department|930  Tacoma Ave|Tacoma|WA|98402|-122.446035|47.253707||92210404|92210404:|
13108907|Tacoma Properties|727  Commerce St|Tacoma|WA|98402|-122.439993|47.25689||65319900|65319900:65310100:|
13108928|Tacoma R V Center|8909 S Tacoma Way|Lakewood|WA|98499|-122.482919|47.176139||55610000|55610000:76991300:75190102:|
13108946|Tacoma Rescue Mission Inc|609 S 15th St|Tacoma|WA|98405|-122.444139|47.248758||||
13108949|Tacoma Rifle & Revolver Club|8503  Chambers Creek Rd|University Place|WA|98467|-122.552317|47.203271||79990703|79990703:86410000:|
13108954|Tacoma Sabercats|2727 E D St|Tacoma|WA|98421|-122.425421|47.237113||79970102|79970102:|
13108960|Tacoma School District No 10 Alternative Schools/Special Programs|5501  6th Ave|Tacoma|WA|98406|-122.509539|47.255531||82110300|82110300:91990401:|
13108968|Lowell Elementary School|810 N 13th St|Tacoma|WA|98403|-122.465997|47.267463||82110000|82110000:91990401:|
13108971|Tacoma School District No 10 School of The Arts|1818  Tacoma Ave|Tacoma|WA|98402|-122.443094|47.244793||82110000|82110000:82499903:|
13108972|Truman Middle School|5801 N 35th St|Tacoma|WA|98407|-122.5161|47.28||82110000|82110000:91990401:|
13108974|Jefferson Elementary School|4302 N 13th St|Tacoma|WA|98406|-122.495493|47.261256||82110000|82110000:91990401:|
13108977|Delong Elementary School|4901 S 14th St|Tacoma|WA|98405|-122.501738|47.248822||82110000|82110000:91990401:|
13108987|Tacoma School District No 10|4002 S Cedar St|Tacoma|WA|98409|-122.477399|47.219836||82110300|82110300:|
13108997|Birney Elementary School|1202 S 76th St|Tacoma|WA|98408|-122.451226|47.187334||82110000|82110000:|
13108999|Tacoma School District No 10|6701 S Park Ave|Tacoma|WA|98408|-122.43963|47.195475||82110300|82110300:91990401:|
13109005|Larchmont Elementary School|8601 E B St|Tacoma|WA|98445|-122.428939|47.178648||82110000|82110000:91990401:|
13109010|Manitou Park Elementary School|4330 S 66th St|Tacoma|WA|98409|-122.495275|47.196928||82110000|82110000:91990401:|
13109013|Whitman Elementary School|1120 S 39th St|Tacoma|WA|98418|-122.449277|47.221374||82110000|82110000:91990401:|
13109014|Fawcett Elementary School|126 E 60th St|Tacoma|WA|98404|-122.429985|47.202108||82110000|82110000:91990401:|
13109019|Baker Middle School|8320 S I St|Tacoma|WA|98408|-122.446317|47.181675||82110000|82110000:91990401:|
13109021|Stewart Middle School|5010  Pacific Ave|Tacoma|WA|98408|-122.43534|47.210888||82110000|82110000:91990401:|
13109022|Geiger Elementary School|621 S Jackson Ave|Tacoma|WA|98465|-122.535496|47.254342||82110000|82110000:91990401:|
13109028|Tacoma Screw Products Inc|2001  Center St|Tacoma|WA|98409|-122.462889|47.234438||52510100|52510100:50850401:|
13109037|Tacoma Signwriters|3153  Soundview Dr|Tacoma|WA|98466|-122.561532|47.230382||50999912|50999912:39930000:89990104:73891800:|
13109056|Tacoma Tofu Corp|1302  Martin Luther King Jr Way|Tacoma|WA|98405|-122.451624|47.249692||||
13109060|Tacoma Transload|501 E 19th St|Tacoma|WA|98421|-122.426803|47.246063||47839901|47839901:|
13109075|Tacoma V-Twin|1310 S 56th St|Tacoma|WA|98408|-122.451364|47.206301||55719905|55719905:56999905:|
13109108|Tacoma's Best Pet Grooming|3411  6th Ave|Tacoma|WA|98406|-122.481013|47.25541||07529901|07529901:59991103:07520203:|
13109648|Tacos Guaymas|2630 S 38th St|Tacoma|WA|98409|-122.473201|47.222056||58120112|58120112:|
131139221|Pierce County Wash Building & Const Trades Council|3049 S 36th St|Tacoma|WA|98409|-122.475951|47.226484||86319900|86319900:|
13114249|Tahoma Electric / Electrical Contractors|3105  148th St|Tacoma|WA|98446|-122.387986|47.122568||17319903|17319903:|
13114258|Tahoma House|4202 S 64th St|Tacoma|WA|98409|-122.49262|47.19904||83220610|83220610:|
13114260|Tahoma Associates Rekey|1545  Tacoma Ave|Tacoma|WA|98402|-122.442692|47.247054||||
13114298|Tahoma Vista Village|1512 S Mildred St|Tacoma|WA|98465|-122.530561|47.245885||83610400|83610400:|
13114588|Tai-Li Market|7046 S Park Ave|Tacoma|WA|98408|-122.442281|47.192137||54110000|54110000:|
13119451|Charles W. Talbot & Associates, P.S.|5005  Center St|Tacoma|WA|98409|-122.50448|47.23456||81110000|81110000:|
131216810|Communicable Disease Information|3629 S D St|Tacoma|WA|98418|-122.435053|47.225167||||
131216834|Lakeview Elementary School|10501  47th Ave|Lakewood|WA|98499|-122.498161|47.161324||82110000|82110000:91990401:|
131216864|McDonald's|2916 S 38th St|Tacoma|WA|98409|-122.47461|47.221691|136|58120307|58120307:|
131216869|Adorra Salon|3401  6th Ave|Tacoma|WA|98406|-122.481179|47.255528||72310000|72310000:|
131216876|John Bargren MD|1112  6th Ave|Tacoma|WA|98405|-122.453283|47.256892||80119904|80119904:|
131216878|Multicare Health System|2420 S Union Ave|Tacoma|WA|98405|-122.482833|47.237784||||
131217022|Lucky Transport|120  Tule Lake Rd|Tacoma|WA|98444|-122.433118|47.139131||42130000|42130000:|
131217089|Boys & Girls Club|1101  A St|Tacoma|WA|98402|-122.436842|47.2534|2840|86410300|86410300:|
13126746|Maria Bonita Restaurant|7421  Custer Rd|Lakewood|WA|98499|-122.511987|47.189607||58120500|58120500:|
13135650|Tangle Salon|6814  27th St|Tacoma|WA|98466|-122.527692|47.235286||72310000|72310000:|
131371127|PetSmart|120  31st Ave|Puyallup|WA|98374|-122.292455|47.161037|1095|59991103|59991103:|
131397048|Van Cour's Automotive|13813  Meridian |Puyallup|WA|98373|-122.292351|47.13077||75390000|75390000:75420000:|
13144027|Taqueria La Fiesta|4502 S Steele St|Tacoma|WA|98409|-122.468145|47.218244||58120112|58120112:|
13149681|Target|5618  Lakewood Towne Center Blvd|Lakewood|WA|98499|-122.511207|47.163666|537|53110000|53110000:59490000:56329906:59999910:57319902:|
131556950|Lauriston|235  Tacoma Ave|Tacoma|WA|98402|-122.445831|47.260761||72999901|72999901:|
131556958|Allenmore Ridge Condo Assoc|2301 S Cedar St|Tacoma|WA|98405|-122.475601|47.237518||86410501|86410501:65310202:|
131556976|Stadium Massage Therapy|240 S Stadium Way|Tacoma|WA|98402|-122.443236|47.261387||80490200|80490200:72990201:|
131556997|Club Silverstone|739  St Helens Ave|Tacoma|WA|98402|-122.441871|47.2569||||
